id,ident,type,name,latitude_deg,longitude_deg,elevation_ft,continent,iso_country,iso_region,municipality,scheduled_service,gps_code,iata_code,local_code,home_link,wikipedia_link,keywords
6586,01CT,heliport,Berlin Fairgrounds Heliport,41.62730026245117,-72.72750092,60,NA,US,US-CT,Berlin,no,01CT,,01CT,,,
6604,01MA,heliport,Compaq Andover Heliport,42.625099182128906,-71.18009949,140,NA,US,US-MA,Andover,no,01MA,,01MA,,,
6606,01ME,seaplane_base,Saint Peter's Seaplane Base,46.778900146484375,-68.50029755,608,NA,US,US-ME,Portage Lake,no,01ME,,01ME,,,
6613,01NH,small_airport,Moore Airfield,43.6445,-72.086998,835,NA,US,US-NH,Canaan,no,01NH,,01NH,,,Enfield
6645,02CT,heliport,Strangers Point Heliport,41.91960144042969,-72.44450378,540,NA,US,US-CT,Ellington,no,02CT,,02CT,,,
6660,02MA,heliport,Cuttyhunk Heliport,41.419601,-70.927002,9,NA,US,US-MA,Cuttyhunk,no,02MA,,02MA,,,
6661,02ME,small_airport,Nadeau's Airfield,43.537467,-70.930685,700,NA,US,US-ME,Acton,no,02ME,,02ME,,,"Mellion Airport, Old Acton Airfield"
6669,02NH,seaplane_base,Iroquois Landing Seaplane Base,44.657100677490234,-71.21910095,1180,NA,US,US-NH,Dummer,no,02NH,,02NH,,,
6716,03M,seaplane_base,Lakeside Lodge and Marina Seaplane Base,44.3209,-69.889503,165,NA,US,US-ME,East Winthrop,no,03M,,03M,,,
6717,03MA,small_airport,Hadley Airport,42.393431,-72.551553,150,NA,US,US-MA,Hadley,no,03MA,,03MA,,,
6719,03ME,small_airport,Maple Ridge Airport,44.084251,-70.626905,556,NA,US,US-ME,Harrison,no,03ME,,03ME,,,
6729,03NH,heliport,Lorden Heliport,42.815399169921875,-71.12439728,400,NA,US,US-NH,Milford,no,03NH,,03NH,,,
6758,04CT,heliport,Shingle Mill Heliport,41.75510025024414,-73.05239868,880,NA,US,US-CT,Harwinton,no,04CT,,04CT,,,
6773,04MA,small_airport,Goddard Field,42.810908,-71.140959,200,NA,US,US-MA,Haverhill,no,04MA,,04MA,,,
6775,04ME,small_airport,Beech Hill Airport,44.66669845581055,-69.89389801,625,NA,US,US-ME,Mercer,no,04ME,,04ME,,,
6801,04VT,small_airport,Lightning Bolt Field Airport,44.40110016,-72.26360321,2156,NA,US,US-VT,Cabot,no,04VT,,04VT,,,
6810,05B,seaplane_base,Van Buren Seaplane Base,47.158901,-67.931999,440,NA,US,US-ME,Van Buren,no,,,05B,,,
6814,05CT,heliport,O And G Heliport,41.77370071,-73.11620331,600,NA,US,US-CT,Torrington,no,05CT,,05CT,,,
6831,05MA,heliport,Bentley Heliport,42.691200256347656,-70.91230011,80,NA,US,US-MA,Ipswich,no,05MA,,05MA,,,
6833,05ME,small_airport,Drisko Airport,44.65700149536133,-67.55919647,70,NA,US,US-ME,Jonesboro,no,05ME,,05ME,,,
6838,05NH,heliport,Stumpfield Heliport,42.92390060424805,-70.95140076,200,NA,US,US-NH,Kensington,no,05NH,,05NH,,,
6856,05VT,heliport,Port of Highgate Springs Heliport,45.013301849365234,-73.08670044,68,NA,US,US-VT,Highgate Springs,no,05VT,,05VT,,,
6864,06B,seaplane_base,Lucky Landing Marina and Seaplane Base,44.907001,-68.805,115,NA,US,US-ME,Glenburn,no,,,06B,,https://en.wikipedia.org/wiki/Lucky_Landing_Marina_and_Seaplane_Base,
6883,06MA,heliport,The Barn Heliport,42.69060134887695,-71.60900116,210,NA,US,US-MA,Pepperell,no,06MA,,06MA,,,
322276,06ME,heliport,Barker Heliport,44.415247,-70.844275,649,NA,US,US-ME,Bethel,no,06ME,,06ME,,,
6893,06NH,small_airport,Cole Farm Airport,42.92839813232422,-70.97309875,160,NA,US,US-NH,Kensington,no,06NH,,06NH,,,
6918,07B,small_airport,Blue Hill Airport,44.448001861572266,-68.56970215,360,NA,US,US-ME,Blue Hill,no,07B,,07B,,,
6922,07CT,closed,TNT Heliport,41.4529,-72.249603,430,NA,US,US-CT,Salem,no,,,,,,07CT
6937,07MA,heliport,West Pond Heliport,41.91699981689453,-70.70950317,149,NA,US,US-MA,Plymouth,no,07MA,,07MA,,,
6939,07ME,heliport,Westbrook Heliport,43.73830032348633,-70.33920288,250,NA,US,US-ME,Westbrook,no,07ME,,07ME,,,
6946,07NH,seaplane_base,Diving Rock Seaplane Base,43.17559814453125,-72.06390381,1404,NA,US,US-NH,Washington,no,07NH,,07NH,,,
6959,07VT,small_airport,Meadow STOLport,44.447200775146484,-72.91470337,801,NA,US,US-VT,Jericho,no,07VT,,07VT,,,
6966,08B,small_airport,Merrymeeting Field,44,-69.88710022,65,NA,US,US-ME,Bowdoinham,no,08B,,08B,,,
6970,08CT,seaplane_base,Seavair's Landing Seaplane Base,41.895999908447266,-73.0931015,881,NA,US,US-CT,Winsted,no,08CT,,08CT,,,
6986,08MA,small_airport,Wormid Airport,42.29399871826172,-71.49620056,360,NA,US,US-MA,Southborough,no,08MA,,08MA,,,
6988,08ME,small_airport,Lindbergh Airport,44.81539,-70.34851,554,NA,US,US-ME,Avon,no,08ME,,08ME,,,"10M, Raymond, Phillips"
6998,08NH,heliport,Memorial Hospital Heliport,44.06129837,-71.13580322,574,NA,US,US-NH,North Conway,no,08NH,,08NH,,,
7006,08R,small_airport,Richmond Airport,41.489498,-71.620598,130,NA,US,US-RI,West Kingston,no,,,08R,,https://en.wikipedia.org/wiki/Richmond_Airport_(Rhode_Island),RI04
7037,09MA,small_airport,Kallander Field,42.304298400878906,-71.50589752,403,NA,US,US-MA,Southborough,no,09MA,,09MA,,,
7038,09ME,small_airport,Perrotti Skyranch Airfield,43.34080123901367,-70.85469818,260,NA,US,US-ME,Berwick,no,09ME,,09ME,,,
7099,0B2,small_airport,Brewer Airport,44.76369857788086,-68.76779938,124,NA,US,US-ME,Brewer,no,0B2,,0B2,,,
7100,0B7,small_airport,Warren-Sugarbush Airport,44.117724,-72.826867,1470,NA,US,US-VT,Warren,no,K0B7,,0B7,,https://en.wikipedia.org/wiki/Warren-Sugarbush_Airport,
7147,0CT0,heliport,Sharon Hospital Heliport,41.881232,-73.480699,640,NA,US,US-CT,Sharon,no,0CT0,,0CT0,,,
7148,0CT1,heliport,Bristol-Myers Squibb Company Heliport,41.484798431396484,-72.7562027,350,NA,US,US-CT,Wallingford,no,0CT1,,0CT1,,,
7149,0CT2,heliport,Windham Hospital Heliport,41.71699905395508,-72.22589874,330,NA,US,US-CT,Willimantic,no,0CT2,,0CT2,,,
7150,0CT3,heliport,N B G H Heliport,41.661598205566406,-72.78790283,431,NA,US,US-CT,New Britain,no,0CT3,,0CT3,,,
7151,0CT4,heliport,Burke Heliport,41.50619888305664,-72.93979645,400,NA,US,US-CT,Prospect,no,0CT4,,0CT4,,,
7152,0CT5,heliport,St Francis Hospital Heliport,41.77450180053711,-72.6989975,184,NA,US,US-CT,Hartford,no,0CT5,,0CT5,,,
7153,0CT6,heliport,Middletown Heliport,41.59680176,-72.70449829,113,NA,US,US-CT,Middletown,no,0CT6,,0CT6,,,
7154,0CT7,heliport,Bridgeport Hospital Heliport,41.188408,-73.1667,80,NA,US,US-CT,Bridgeport,no,0CT7,,0CT7,,,
7155,0CT8,heliport,Danbury Hospital Heliport,41.405297,-73.445165,510,NA,US,US-CT,Danbury,no,0CT8,,0CT8,,,
7156,0CT9,heliport,Hartford Hospital Heliport,41.75450134277344,-72.67870331,211,NA,US,US-CT,Hartford,no,0CT9,,0CT9,,,
7302,0MA1,heliport,Massachusetts General Hospital Heliport,42.363656,-71.069142,214,NA,US,US-MA,Boston,no,0MA1,,0MA1,,,
7303,0MA2,heliport,Healthalliance Hospital-Leominster Heliport,42.54090118408203,-71.76280212,450,NA,US,US-MA,Leominster,no,0MA2,,0MA2,,,
7304,0MA3,heliport,Reh Heliport,41.786224,-71.231437,100,NA,US,US-MA,Rehoboth,no,0MA3,,0MA3,,,
7305,0MA4,heliport,Boston Medical Center Hospital Heliport,42.333804,-71.071352,19,NA,US,US-MA,Boston,no,0MA4,,0MA4,,,
7306,0MA5,heliport,Brockton Usar Center Heliport,42.05590057373047,-71.05590057,85,NA,US,US-MA,Brockton,no,0MA5,,0MA5,,,
7307,0MA6,heliport,Wbz Heliport,42.36510086,-71.13259888,9,NA,US,US-MA,Boston,no,0MA6,,0MA6,,,
7308,0MA8,closed,Textron/Everett Heliport,42.404496,-71.070602,40,NA,US,US-MA,Everett,no,,,,,,0MA8
7309,0MA9,heliport,Lleia Kyle O'Meara Heliport,42.50310134887695,-71.90840149,1230,NA,US,US-MA,Westminster,no,0MA9,,0MA9,,,
45455,0ME4,small_airport,Peasley Field,44.742469,-68.474403,271,NA,US,US-ME,Otis,no,0ME4,,0ME4,,,
345496,0ME7,seaplane_base,Sebago Lake Basin Seaplane Base,43.839716,-70.462016,266,NA,US,US-ME,North Windham,no,0ME7,,0ME7,,,
324652,0NH7,heliport,Leinsing Heliport,43.151831,-70.846902,10,NA,US,US-NH,Dover,no,0NH7,,0NH7,,,2ME7
7671,10MA,seaplane_base,Beaver Lake Seaplane Base,42.26259994506836,-72.30699921,384,NA,US,US-MA,Ware,no,10MA,,10MA,,,
328986,10ME,heliport,Penobscot Valley Hospital Heliport,45.348713,-68.516636,368,NA,US,US-ME,Lincoln,no,10ME,,10ME,,,
7681,10NH,heliport,Clark Heliport,42.87409973144531,-71.17970276,320,NA,US,US-NH,Hampstead,no,10NH,,10NH,,,
7722,11MA,small_airport,Bulljump Airport,41.80730056762695,-70.75839996,60,NA,US,US-MA,Wareham,no,11MA,,11MA,,,
7727,11N,small_airport,Candlelight Farms Airport,41.566799,-73.466202,675,NA,US,US-CT,New Milford,no,11N,,11N,,https://en.wikipedia.org/wiki/Candlelight_Farms_Airport,
7773,12MA,heliport,Mellen Street Heliport,42.20709991455078,-71.44270325,275,NA,US,US-MA,Holliston,no,12MA,,12MA,,,
7775,12ME,small_airport,Ridgeview Airport,44.32229995727539,-69.20729828,240,NA,US,US-ME,Searsmont,no,12ME,,12ME,,,
45523,12NH,small_airport,Gile Pond Airport,43.495278,-71.654444,485,NA,US,US-NH,Sanbornton,no,12NH,,12NH,,,
7830,13MA,closed,Metropolitan Airport,42.223301,-72.311401,418,NA,US,US-MA,Palmer,no,,,,,https://en.wikipedia.org/wiki/Metropolitan_Airport,"13MA, PMX, PMX"
7831,13ME,small_airport,Socatean Bay Airport,45.77640151977539,-69.80930328,1179,NA,US,US-ME,Rockwood,no,13ME,,13ME,,,
346084,13NH,heliport,Coffin Brook Landing Heliport,43.423889,-71.248722,705,NA,US,US-NH,Alton,no,13NH,,13NH,,,
7874,14CT,heliport,Mashantucket Pequot Tribal Nation Heliport,41.484699,-71.9729,124,NA,US,US-CT,Mashantucket,no,14CT,,14CT,,,
7891,14MA,closed,Vergnani Heliport,42.049801,-72.6493,180,NA,US,US-MA,Agawam,no,,,,,,14MA
10266,14ME,small_airport,Ring Hill Airport,44.79125,-69.071479,340,NA,US,US-ME,Carmel,no,14ME,,14ME,,https://en.wikipedia.org/wiki/Ring_Hill_Airport,Formerly 38B
7901,14NH,heliport,Cheshire Medical Center Heliport,42.94889831542969,-72.28970337,481,NA,US,US-NH,Keene,no,14NH,,14NH,,,
7946,15MA,small_airport,Canapitsit Airport,41.42251,-70.909295,10,NA,US,US-MA,Gosnold,no,15MA,,15MA,,,
7947,15ME,small_airport,Eagle Field,43.81529998779297,-70.22920227,150,NA,US,US-ME,North Yarmouth,no,15ME,,15ME,,,
7955,15NH,heliport,Nashua Technology Park Heliport,42.708333,-71.458333,235,NA,US,US-NH,Nashua,no,15NH,,15NH,,,Hp Spit Brook Heliport
7999,16MA,heliport,Lawrence General Hospital Heliport,42.709800720214844,-71.15059662,60,NA,US,US-MA,Lawrence,no,16MA,,16MA,,,
329353,16ME,heliport,Presque Isle Heliport,46.675919,-67.998981,631,NA,US,US-ME,Presque Isle,no,16ME,,16ME,,,
8007,16NH,seaplane_base,Bossey's Seaplane Base,43.60419845581055,-71.51249695,624,NA,US,US-NH,Meredith,no,16NH,,16NH,,,
8048,17MA,heliport,Long Hill Heliport,42.504798889160156,-71.77839661,630,NA,US,US-MA,Leominster,no,17MA,,17MA,,,
45445,17ME,small_airport,Bresett's Mountainside Airport,47.201377,-67.992432,590,NA,US,US-ME,Van Buren,no,17ME,,17ME,,,
8056,17NH,heliport,Pomroy Heliport,42.82389831542969,-71.36499786,254,NA,US,US-NH,Londonderry,no,17NH,,17NH,,,
8101,18MA,heliport,Holy Family Hospital Heliport,42.72779846191406,-71.16829681,202,NA,US,US-MA,Methuen,no,18MA,,18MA,,,
45451,18ME,small_airport,Ruby Airport,43.893597,-69.495406,216,NA,US,US-ME,Bristol,no,18ME,,18ME,,,
345590,18NH,heliport,Catholic Medical Center Heliport,42.99161,-71.474234,252,NA,US,US-NH,Manchester,no,18NH,,18NH,,,
324481,18VT,heliport,Springfield Hospital Heliport,43.298465,-72.494588,589,NA,US,US-VT,Springfield,no,18VT,,18VT,,,
8145,19MA,heliport,Waine Heliport,41.285099029541016,-70.14969635,80,NA,US,US-MA,Nantucket,no,19MA,,19MA,,,
8151,19NH,heliport,Lorden II Heliport,42.978194,-71.693806,700,NA,US,US-NH,New Boston,no,19NH,,19NH,,,
505952,19VT,heliport,Monsalvat Farm Holdings LLC Heliport,43.756672,-72.613083,1496,NA,US,US-VT,Barnard,no,19VT,,19VT,,,
8214,1B3,closed,Fair Haven Municipal Airport,43.615299,-73.274597,370,NA,US,US-VT,Fair Haven,no,,,,,,1B3
8215,1B5,small_airport,Franconia Airport,44.195611,-71.751023,970,NA,US,US-NH,Franconia,no,,,1B5,,https://en.wikipedia.org/wiki/Franconia_Airport,
8255,1CT0,closed,Norden Systems Heliport,41.112461,-73.38762,60,NA,US,US-CT,Norwalk,no,,,,,,1CT0
8256,1CT2,heliport,Yale New Haven Hospital Heliport,41.30379867553711,-72.93579865,219,NA,US,US-CT,New Haven,no,1CT2,,1CT2,,,
8257,1CT3,heliport,St Mary's Heliport,41.55337,-73.03763,300,NA,US,US-CT,Waterbury,no,1CT3,,1CT3,,,
8429,1M8,small_airport,Myricks Airport,41.8391,-71.026497,71,NA,US,US-MA,Berkley,no,1M8,,1M8,,https://en.wikipedia.org/wiki/Myricks_Airport,
8430,1MA0,heliport,Beth Israel Deaconess Hospital Plymouth Heliport,41.940135,-70.6472,122,NA,US,US-MA,Plymouth,no,1MA0,,1MA0,,,Jordan Hospital Heliport
8431,1MA1,heliport,Deaconess Nashoba Hospital Heliport,42.576499938964844,-71.5739975,308,NA,US,US-MA,Ayer,no,1MA1,,1MA1,,,
8432,1MA2,heliport,UMASS Memorial Medical Center-Univ Campus Heliport,42.27500153,-71.76000214,417,NA,US,US-MA,Worcester,no,1MA2,,1MA2,,,
8433,1MA4,heliport,Wang Heliport,42.60929870605469,-71.32170105,104,NA,US,US-MA,Lowell,no,1MA4,,1MA4,,,
8434,1MA5,small_airport,Unknown Field,42.27899932861328,-71.54779816,432,NA,US,US-MA,Southborough,no,1MA5,,1MA5,,,
8435,1MA6,heliport,Micron Heliport,42.067901611328125,-72.74449921,245,NA,US,US-MA,Southwick,no,1MA6,,1MA6,,,
8436,1MA7,heliport,Long Hill Orchard Heliport,42.47340012,-70.97889709,120,NA,US,US-MA,West Newbury,no,1MA7,,1MA7,,,
8437,1MA8,heliport,Horizon Hill Heliport,42.419656,-71.309323,336,NA,US,US-MA,Lincoln,no,1MA8,,1MA8,,,
8438,1MA9,heliport,Morton Hospital Heliport,41.90589904785156,-71.09420013,50,NA,US,US-MA,Taunton,no,1MA9,,1MA9,,,
8448,1ME,seaplane_base,Chesuncook Lake House Seaplane Base,46.06090164,-69.40940094,942,NA,US,US-ME,Chesuncook,no,1ME,,1ME,,,
8449,1ME1,heliport,Victor Heliport,44.41059875488281,-69.00920105,180,NA,US,US-ME,Belfast,no,1ME1,,1ME1,,,
329077,1ME2,heliport,Maine General Medical Center-Waterville Heliport,44.566216,-69.64785,112,NA,US,US-ME,Waterville,no,1ME2,,1ME2,,,
8612,1P1,small_airport,Plymouth Municipal Airport,43.778299,-71.753919,505,NA,US,US-NH,Plymouth,no,1P1,,1P1,,https://en.wikipedia.org/wiki/Plymouth_Municipal_Airport_(New_Hampshire),
345774,1VT8,small_airport,Mortimer Brown Landing,43.665221,-73.166263,900,NA,US,US-VT,Castleton,no,1VT8,,1VT8,,,
8782,20CT,closed,Global Development Facility Heliport,41.342318,-72.093025,17,NA,US,US-CT,New London,no,,,,,,20CT
8797,20MA,heliport,WCVB-TV Heliport,42.304154,-71.227058,157,NA,US,US-MA,Needham,no,20MA,,20MA,,,
45447,20ME,heliport,Jerry Douglass Heliport,44.058333,-70.098611,252,NA,US,US-ME,Lisbon,no,20ME,,20ME,,,
8842,21M,seaplane_base,Currier's Seaplane Base,45.462501525878906,-69.61949921,1028,NA,US,US-ME,Greenville Junction,no,21M,,21M,,,
8843,21MA,heliport,Advance Materials Corp Heliport,42.45539855957031,-73.20230103,1000,NA,US,US-MA,Pittsfield,no,21MA,,21MA,,,
8852,21NH,small_airport,Propwash Airport,42.916900634765625,-70.93530273,190,NA,US,US-NH,Kensington,no,21NH,,21NH,,,
8896,22MA,heliport,Poole's Heliport,42.636199951171875,-70.61869812,45,NA,US,US-MA,Rockport,no,22MA,,22MA,,,
331479,22ME,heliport,Bar Harbor Heliport,44.381672,-68.203942,35,NA,US,US-ME,Bar Harbor,no,22ME,,22ME,,,
325322,22VT,heliport,Northeastern Vermont Regional Hospital Heliport,44.446359,-72.010503,766,NA,US,US-VT,Johnsbury,no,22VT,,22VT,,,
8935,23CT,heliport,Blanchette Heliport,41.78590012,-72.9312973,500,NA,US,US-CT,Burlington,no,23CT,,23CT,,,
8951,23MA,heliport,Westford Regency Heliport,42.56309891,-71.43139648,255,NA,US,US-MA,Westford,no,23MA,,23MA,,,
8953,23ME,closed,Dyer's Field,44.526402,-70.663597,650,NA,US,US-ME,Rumford,no,,,,,,23ME
8962,23NH,small_airport,Windswept Airport,43.13029861,-72.01499939,1289,NA,US,US-NH,Windsor,no,23NH,,23NH,,,
8978,23VT,small_airport,North Windham Airport,43.221500396728516,-72.71289825,1750,NA,US,US-VT,Londonderry,no,23VT,,23VT,,,
45341,24CT,small_airport,Bee Field,41.582234,-71.968226,280,NA,US,US-CT,Jewett City,no,24CT,,24CT,,,
9009,24MA,heliport,Barre-Bassett Heliport,42.43590164,-72.09670258,900,NA,US,US-MA,Barre,no,24MA,,24MA,,,
9011,24ME,small_airport,Slip Knot Landing Airport,43.822200775146484,-70.44280243,310,NA,US,US-ME,Windham,no,24ME,,24ME,,,
42767,24NH,heliport,Wicks Heliport,42.943611,-72.484444,800,NA,US,US-NH,Westmoreland,no,24NH,,24NH,,,Bountiful Farm
9061,25MA,heliport,High School Heliport,42.20560073852539,-71.44139862,265,NA,US,US-MA,Holliston,no,25MA,,25MA,,,
45525,25NH,heliport,Phantom Three Heliport,43.317111,-72.389722,410,NA,US,US-NH,Charlestown,no,25NH,,25NH,,,
9109,26MA,small_airport,Pepperell Airport,42.69620132446289,-71.55010223,176,NA,US,US-MA,Pepperell,no,26MA,,26MA,,,
45526,26NH,heliport,Phantom Two Heliport,43.667833,-72.202722,1275,NA,US,US-NH,Lebanon,no,26NH,,26NH,,,
324433,26VT,heliport,Brattleboro Memorial Hospital Heliport,42.843897,-72.567033,416,NA,US,US-VT,Brattleboro,no,26VT,,26VT,,,
9158,27MA,seaplane_base,Wamsetto Seaplane Base,41.82059860229492,-71.11470032,,NA,US,US-MA,Berkley,no,27MA,,27MA,,,
512951,27ME,seaplane_base,Pleasant Pond Seaplane Base,44.133339,-69.889617,131,NA,US,US-ME,Richmond,no,27ME,,27ME,,,
45524,27NH,heliport,Phantom One Heliport,43.673972,-72.206472,1315,NA,US,US-NH,Hanover,no,27NH,,27NH,,,
9207,28M,small_airport,Cranland Airport,42.025101,-70.838097,71,NA,US,US-MA,Hanson,no,28M,,28M,,https://en.wikipedia.org/wiki/Cranland_Airport,
9208,28MA,small_airport,Cannizzaro Field,42.078238,-72.818792,250,NA,US,US-MA,Southwick,no,28MA,,28MA,,,
9215,28NH,heliport,A and K Heliport,42.93690109,-71.66950226,825,NA,US,US-NH,New Boston,no,28NH,,28NH,,,
356187,28VT,heliport,Mount Ascutney Hospital Heliport,43.486825,-72.403014,532,NA,US,US-VT,Windsor,no,28VT,,28VT,,,
9256,29MA,heliport,Laminated Heliport,42.201499938964844,-72.59809875,135,NA,US,US-MA,Holyoke,no,29MA,,29MA,,,
45453,29ME,seaplane_base,Teconnet Seaplane Base,44.448,-69.530333,194,NA,US,US-ME,China,no,29ME,,29ME,,,
9265,29NH,heliport,Sunny Hill Landing Heliport,42.88840103149414,-71.7378006,822,NA,US,US-NH,Lyndeborough,no,29NH,,29NH,,,
9273,29RI,heliport,Vaucluse Farm Heliport,41.542198181152344,-71.23609924,40,NA,US,US-RI,Portsmouth,no,29RI,,29RI,,,
45869,29VT,seaplane_base,Middle Hero Seaplane Base,44.756389,-73.266667,105,NA,US,US-VT,Grand Isle,no,29VT,,29VT,,,
9327,2B1,small_airport,Cape Cod Airport,41.685299,-70.402298,103,NA,US,US-MA,Marston Mills,no,2B1,,2B1,,https://en.wikipedia.org/wiki/Cape_Cod_Airfield,
9328,2B2,small_airport,Plum Island Airport,42.795898,-70.841202,11,NA,US,US-MA,Newburyport,no,2B2,,2B2,,https://en.wikipedia.org/wiki/Plum_Island_Airport,
9330,2B9,small_airport,Post Mills Airport,43.88420105,-72.25370026,693,NA,US,US-VT,Post Mills,no,2B9,,2B9,,https://en.wikipedia.org/wiki/Post_Mills_Airport,
9402,2G8,small_airport,Gorham Airport,44.39310073852539,-71.19670105,835,NA,US,US-NH,Gorham,no,2G8,,2G8,,https://en.wikipedia.org/wiki/Gorham_Airport,
9531,2MA2,heliport,Digital Heliport,42.326499938964844,-71.40950012,450,NA,US,US-MA,Hudson,no,2MA2,,2MA2,,,
9532,2MA3,heliport,Rider Heliport,42.66429901123047,-70.83979797,40,NA,US,US-MA,Ipswich,no,2MA3,,2MA3,,,
9533,2MA4,heliport,Compaq Littleton Heliport,42.54930114746094,-71.47260284,300,NA,US,US-MA,Littleton,no,2MA4,,2MA4,,,
9534,2MA5,heliport,Compaq Powdermill Road Heliport,42.42789840698242,-71.45760345,175,NA,US,US-MA,Maynard,no,2MA5,,2MA5,,,
9535,2MA6,seaplane_base,Flynns Noquochoke Seaplane Base,41.59360122680664,-71.06529999,,NA,US,US-MA,Westport,no,2MA6,,2MA6,,,
9536,2MA7,seaplane_base,Falls Pond Seaplane Base,41.95840072631836,-71.32640076,175,NA,US,US-MA,North Attleborough,no,2MA7,,2MA7,,,
9537,2MA8,heliport,Compaq Stow Heliport,42.43090057373047,-71.54170227,250,NA,US,US-MA,Stow,no,2MA8,,2MA8,,,
9538,2MA9,heliport,Digital Heliport,42.63930130004883,-71.22450256,130,NA,US,US-MA,Tewksbury,no,2MA9,,2MA9,,,
331719,2ME2,heliport,North Haven Heliport,44.129372,-68.874339,48,NA,US,US-ME,North Haven,no,2ME2,,2ME2,,,
301205,2me3,small_airport,Heartstone Farm Airport,45.04135,-68.990021,230,NA,US,US-ME,Charleston,no,2ME3,,2ME3,,,Charleston / Harte Field
9595,2N2,small_airport,Newfound Valley Airport,43.591116,-71.751691,510,NA,US,US-NH,Bristol,no,K2N2,,2N2,,https://de.wikipedia.org/wiki/Newfound_Valley_Airport,
506124,2NH1,heliport,Foote Heliport,42.860257,-71.487382,235,NA,US,US-NH,Merrimack,no,2NH1,,2NH1,,,
9623,2NH2,heliport,Westport Heliport,42.85490036010742,-71.47370148,205,NA,US,US-NH,Litchfield,no,2NH2,,2NH2,,,
9624,2NH3,heliport,Scott Heliport,43.11429977416992,-71.49819946,580,NA,US,US-NH,Bow,no,2NH3,,2NH3,,,
9625,2NH4,heliport,Spear Memorial Hospital Heliport,43.75749969482422,-71.69560242,977,NA,US,US-NH,Plymouth,no,2NH4,,2NH4,,,
9626,2NH5,small_airport,Pilgrim's Home Airfield,42.990299224853516,-72.40170288,600,NA,US,US-NH,Westmoreland,no,2NH5,,2NH5,,,
45527,2NH6,heliport,Speedway Northside Heliport,43.365773,-71.455665,560,NA,US,US-NH,Loudon,no,2NH6,,2NH6,,,
9627,2NH9,closed,Brookside Heliport,44.028099,-72.010803,700,NA,US,US-NH,Haverhill,no,,,,,,2NH9
9739,2RI7,heliport,Malbone Estate Heliport,41.504909,-71.310511,83,NA,US,US-RI,Newport,no,2RI7,,2RI7,,,
9843,2VT2,seaplane_base,Northern Lights Seaplane Base,44.872798919677734,-73.28170013,95,NA,US,US-VT,Alburg,no,2VT2,,2VT2,,,
9928,30MA,heliport,Clinton Hospital Heliport,42.42789840698242,-71.69280243,368,NA,US,US-MA,Clinton,no,30MA,,30MA,,,
505272,30ME,heliport,Togus VA LZ Heliport,44.275255,-69.704879,169,NA,US,US-ME,Augusta,no,30ME,,30ME,,,
45338,31CT,heliport,Quiet Corner Heliport,41.854767,-71.928483,268,NA,US,US-CT,Pomfret,no,31CT,,31CT,,,
9969,31MA,small_airport,Norm's Field,42.26242,-72.409308,460,NA,US,US-MA,Belchertown,no,31MA,,31MA,,,
324599,31NH,heliport,Johnson's Heliport,43.223588,-71.25072,562,NA,US,US-NH,Northwood,no,31NH,,31NH,,,
10009,32MA,heliport,Berkshire Medical Center Heliport,42.708035,-73.110328,855,NA,US,US-MA,North Adams,no,32MA,,32MA,,,North Adams Regional Hospital
346065,32NH,heliport,Lumberjack Heliport,43.838358,-71.885873,742,NA,US,US-NH,Wentworth,no,32NH,,32NH,,,
45337,33CT,small_airport,Irish Hills Farms Airport,41.609444,-73.239722,830,NA,US,US-CT,Bethlehem,no,33CT,,33CT,,,
10054,33MA,heliport,Seagate Heliport,42.55979919433594,-70.77230072,40,NA,US,US-MA,Manchester,no,33MA,,33MA,,,
506120,33NH,heliport,Bear Hill Heliport,43.144345,-71.853634,864,NA,US,US-NH,Henniker,no,33NH,,33NH,,,
344831,33VT,small_airport,Sky View Acres Airport,44.118333,-72.565833,1350,NA,US,US-VT,Williamstown,no,33VT,,33VT,,,
10099,34MA,heliport,Crowhurst Heliport,42.57630157470703,-70.73889923,70,NA,US,US-MA,Manchester-By-The Sea,no,34MA,,34MA,,,
10107,34NH,heliport,Stone Song Heliport,42.814701080322266,-71.66110229,360,NA,US,US-NH,Milford,no,34NH,,34NH,,,
10148,35MA,heliport,Idlewide Heliport,42.55799865722656,-70.81259918,25,NA,US,US-MA,Beverly,no,35MA,,35MA,,,
10149,35ME,small_airport,Matinicus Island Airport,43.871338,-68.893504,15,NA,US,US-ME,Matinicus Island,yes,35ME,,35ME,,,
45522,35NH,seaplane_base,Cobbetts Pond Seaplane Base,42.806914,-71.275853,177,NA,US,US-NH,Windham,no,35NH,,35NH,,,
322293,36MA,heliport,Beth Israel Deaconess Medical Center Heliport,42.338161,-71.109107,161,NA,US,US-MA,Boston,no,36MA,,36MA,,,
10198,36NH,heliport,Long Pond Landing Heliport,42.700801849365234,-71.37110138,185,NA,US,US-NH,Pelham,no,36NH,,36NH,,,
45870,36VT,seaplane_base,North Hero Passage Seaplane Base,44.854722,-73.285556,102,NA,US,US-VT,North Hero,no,36VT,,36VT,,,
45471,37MA,heliport,Hanson Heliport,42.122778,-72.423611,400,NA,US,US-MA,Wilbraham,no,37MA,,37MA,,,
333479,37NH,seaplane_base,Hooksett's Seaplane Landing,43.085833,-71.466944,175,NA,US,US-NH,Hooksett,no,37NH,,37NH,,,
10258,37VT,small_airport,Brisson Airport,43.86859893798828,-73.31809998,320,NA,US,US-VT,Shoreham,no,37VT,,37VT,,,
506303,38VT,small_airport,Muddy Paw Airport,44.402083,-73.157917,372,NA,US,US-VT,Shelburne,no,38VT,,38VT,,,
10316,39B,seaplane_base,Nugent Chamberlain Lake Seaplane Base,46.21670150756836,-69.24949646,945,NA,US,US-ME,Chesuncook,no,39B,,39B,,,
328922,39ME,heliport,Maine Coast Memorial Heliport,44.5465528,-68.4173944,161,NA,US,US-ME,Ellsworth,no,39ME,,39ME,,,
18674,3B3,small_airport,Sterling Airport,42.4259,-71.7929,459,NA,US,US-MA,Sterling,no,3B3,,3B3,,https://en.wikipedia.org/wiki/Sterling_Airport,
10582,3MA0,heliport,Compaq Woburn Heliport,42.50979995727539,-71.13639832,80,NA,US,US-MA,Woburn,no,3MA0,,3MA0,,,
10583,3MA1,heliport,Marlborough Hospital Heliport,42.35620117,-71.55509949,520,NA,US,US-MA,Marlborough,no,3MA1,,3MA1,,,
10584,3MA2,small_airport,Baines Airport,42.316200256347656,-73.03199768,1160,NA,US,US-MA,Middlefield,no,3MA2,,3MA2,,,
10585,3MA3,heliport,Seapuit Heliport,41.61149978637695,-70.41529846,20,NA,US,US-MA,Barnstable,no,3MA3,,3MA3,,,
10586,3MA4,heliport,North Chatham Heliport,41.71480178833008,-69.9661026,10,NA,US,US-MA,Chatham,no,3MA4,,3MA4,,,
10587,3MA5,small_airport,Westport Airport,41.543201,-71.035301,80,NA,US,US-MA,Westport,no,3MA5,,3MA5,,,
10588,3MA6,heliport,Happy Heliport,41.58369827270508,-71.04060364,127,NA,US,US-MA,Dartmouth,no,3MA6,,3MA6,,,
10589,3MA7,closed,Gear Plant Heliport,42.452141,-70.965432,10,NA,US,US-MA,Lynn,no,,,,,,"3MA7, 3MA7, 3MA7"
10590,3MA8,heliport,Sadler Hill Heliport,42.62229919433594,-70.65229797,125,NA,US,US-MA,Gloucester,no,3MA8,,3MA8,,,
10591,3MA9,heliport,Marston Mills Heliport,41.64039993286133,-70.40779877,10,NA,US,US-MA,Marston Mills,no,3MA9,,3MA9,,,
301251,3ME7,seaplane_base,Peru / Destiny Cove SPB,44.460597,-70.396957,580,NA,US,US-ME,,no,3ME7,,,,,
10602,3ME8,seaplane_base,Mast Cove Seaplane Base,43.994998931884766,-70.64129639,267,NA,US,US-ME,Naples,no,3ME8,,3ME8,,,
321922,3NH2,seaplane_base,Flying Loon Seaplane Base,42.9737639,-72.0847278,1400,NA,US,US-NH,Nelson,no,3NH2,,3NH2,,,
345716,3NH4,heliport,Portsmouth Regional Hospital Heliport,43.06462,-70.791532,62,NA,US,US-NH,Portsmouth,no,3NH4,,3NH4,,,
10665,3NH9,heliport,Longview Heliport,43.54759979248047,-71.22699738,560,NA,US,US-NH,Alton,no,3NH9,,3NH9,,,
10771,3S2,small_airport,Swans Field,44.51409912109375,-70.40679932,400,NA,US,US-ME,Dixfield,no,3S2,,3S2,,,
349115,3UT7,heliport,Losee Villa Heliport,40.409681,-111.511273,5680,NA,US,US-VT,Heber City,no,3UT7,,3UT7,,,
347511,40MA,heliport,Lowell General Hospital Heliport,42.648141,-71.34294,143,NA,US,US-MA,Lowell,no,40MA,,40MA,,,
45456,40ME,small_airport,Tib Field,44.107519,-70.956454,450,NA,US,US-ME,Fryeburg,no,,,40ME,,,
550681,40RI,heliport,Newport Trust Heliport,41.461444,-71.307667,34,NA,US,US-RI,Newport,no,40RI,,40RI,,,
45470,41MA,heliport,Haney Heliport,41.590556,-70.474963,22,NA,US,US-MA,Mashpee,no,41MA,,41MA,,,
506304,41ME,small_airport,Eagle Ridge Airfield,44.519616,-70.146278,400,NA,US,US-ME,Jay,no,41ME,,41ME,,,
324573,41NH,heliport,Upper Connecticut Vally Hospital Heliport,44.903922,-71.481517,1101,NA,US,US-NH,Colebrook,no,41NH,,41NH,,,
10985,42B,small_airport,Goodspeed Airport,41.446072,-72.45698,9,NA,US,US-CT,East Haddam,no,,,42B,,https://en.wikipedia.org/wiki/Goodspeed_Airport,
11000,42MA,heliport,Worcester Medical Center Heliport,42.25429916381836,-71.79769897,469,NA,US,US-MA,Worcester,no,42MA,,42MA,,,
310041,42NH,heliport,Androscoggin Valley Hospital Helipad,44.48673,-71.15433,1183,NA,US,US-NH,Berlin,no,42NH,,42NH,,,
11020,42VT,small_airport,Frogs End Airport,44.36690139770508,-73.15019989,320,NA,US,US-VT,Shelburne,no,42VT,,42VT,,,
328496,43NH,heliport,Trayport Heliport,43.223044,-70.831564,108,NA,US,US-NH,Rollinsford,no,43NH,,43NH,,,
11066,44B,small_airport,Charles A. Chase Jr. Memorial Field,45.177502,-69.244698,520,NA,US,US-ME,Dover-Foxcroft,no,,,44B,,https://en.wikipedia.org/wiki/Charles_A._Chase_Jr._Memorial_Field,
332067,44ME,small_airport,Heacock Field Ultralight Flightpark,43.676555,-70.617203,195,NA,US,US-ME,Hollis Center,no,44ME,,44ME,,,
323343,44NH,heliport,Lakes Region General Hospital Heliport,43.528004,-71.463906,597,NA,US,US-NH,Laconia,no,44NH,,44NH,,,
356192,45ME,heliport,Miles Hospital Heliport,44.026651,-69.53011,8,NA,US,US-ME,Damariscotta,no,45ME,,45ME,,,
11130,45NH,heliport,Hayes Heliport,42.985198974609375,-71.17829895,152,NA,US,US-NH,Raymond,no,45NH,,45NH,,,
45450,46ME,heliport,Redington-Fairview General Hospital Heliport,44.757728,-69.714411,205,NA,US,US-ME,Skowhegan,no,ME29,,ME29,,,
346063,46NH,heliport,Upper Valley Heliport,43.859999,-72.095954,1196,NA,US,US-NH,Orford,no,46NH,,46NH,,,
11207,47MA,heliport,Devon Glen Heliport,42.62340164,-70.86620331,100,NA,US,US-MA,Hamilton,no,47MA,,47MA,,,
356195,47ME,heliport,Sebasticook Valley Hospital Heliport,44.789602,-69.370219,306,NA,US,US-ME,Pittsfield,no,47ME,,47ME,,,
330461,47VT,small_airport,Cub Field,44.125677,-73.369616,140,NA,US,US-VT,Panton,no,47VT,,47VT,,,
11252,48NH,seaplane_base,Winter Harbor Seaplane Base,43.59389877319336,-71.26139832,504,NA,US,US-NH,Wolfeboro,no,48NH,,48NH,,,
45867,48VT,seaplane_base,Cub Cove Seaplane Base,44.553547,-73.231497,95,NA,US,US-VT,Colchester,no,48VT,,48VT,,,
356197,49ME,heliport,Inland Hospital Heliport,44.542114,-69.661238,227,NA,US,US-ME,Waterville,no,49ME,,49ME,,,
11360,4B9,small_airport,Simsbury Airport,41.915755,-72.777128,195,NA,US,US-CT,Simsbury,no,,,4B9,,https://en.wikipedia.org/wiki/Simsbury_Airport,
11363,4C3,heliport,Yalesville Heliport,41.49188889,-72.81116667,65,NA,US,US-CT,Yalesville,no,4C3,,4C3,,,
11364,4C4,small_airport,Gifford Field,44.8834,-71.499496,1010,NA,US,US-NH,Colebrook,no,4C4,,4C4,,https://de.wikipedia.org/wiki/Gifford_Field,
11526,4MA0,heliport,Burke Heliport,42.233011,-71.358601,240,NA,US,US-MA,Sherborn,no,4MA0,,4MA0,,,
11527,4MA1,heliport,Bangs Heliport,41.777000427246094,-70.68810272,30,NA,US,US-MA,Wareham,no,4MA1,,4MA1,,,
11528,4MA2,heliport,Dow Jones Heliport,42.162899017333984,-72.55039978,200,NA,US,US-MA,Chicopee,no,4MA2,,4MA2,,,
11529,4MA3,heliport,Millbury Savings/West Heliport,42.19179916381836,-71.76950073,393,NA,US,US-MA,Millbury,no,4MA3,,4MA3,,,
11530,4MA4,heliport,J K L Heliport,41.621485,-71.014225,30,NA,US,US-MA,New Bedford,no,4MA4,,4MA4,,,
11531,4MA5,heliport,World Trade Center Heliport,42.349300384521484,-71.04370117,15,NA,US,US-MA,Boston,no,4MA5,,4MA5,,,
11532,4MA6,heliport,Pleasant Beach Heliport,42.26258,-70.81278,20,NA,US,US-MA,Cohasset,no,4MA6,,4MA6,,,
11533,4MA7,heliport,Ahearn Heliport,42.19150161743164,-72.45010376,280,NA,US,US-MA,Ludlow,no,4MA7,,4MA7,,,
11534,4MA8,heliport,Pg Heliport,42.28089904785156,-71.03730011,10,NA,US,US-MA,Quincy,no,4MA8,,4MA8,,,
11535,4MA9,heliport,Broad Street Heliport,42.09091567993164,-72.58370209,60,NA,US,US-MA,Springfield,no,4MA9,,4MA9,,,
11545,4ME4,seaplane_base,Lovewell Pond Seaplane Base,44.00680160522461,-70.93360138,390,NA,US,US-ME,Fryeburg,no,4ME4,,4ME4,,,
331721,4ME9,heliport,Norway Heliport,44.209319,-70.531705,380,NA,US,US-ME,Norway,no,4ME9,,4ME9,,,Stephens Memorial Hospital
11763,4V8,small_airport,Deerfield Valley Regional Airport,42.927101,-72.8657,1953,NA,US,US-VT,West Dover,no,4V8,,4V8,https://web.archive.org/web/20230607234837/https://vtrans.vermont.gov/aviation/airports/deerfield-valley,https://en.wikipedia.org/wiki/Deerfield_Valley_Regional_Airport,Mount Snow
514276,50ME,heliport,Rocky Lake Heliport,44.787972,-67.307417,208,NA,US,US-ME,Marion,no,50ME,,50ME,,,
350967,50NH,heliport,Smith Point Heliport,43.555146,-71.309627,499,NA,US,US-NH,Alton,no,50NH,,50NH,,,
345500,51MA,heliport,BSAS #2 Heliport,42.672583,-70.622083,40,NA,US,US-MA,Rockport,no,51MA,,51MA,,,
506816,51ME,small_airport,Beaver Creek Airport,44.503854,-70.071815,600,NA,US,US-ME,Chesterville,no,51ME,,51ME,,,
346673,51NH,small_airport,Blue Puffin Farm Heliport,43.174782,-71.282843,863,NA,US,US-NH,Deerfield,no,51NH,,51NH,,,
11904,52B,seaplane_base,Greenville Seaplane Base,45.46120071411133,-69.59780121,1028,NA,US,US-ME,Greenville,no,52B,,52B,,,
505964,52NH,seaplane_base,Baboosic Lake Seaplane Base,42.879714,-71.576417,227,NA,US,US-NH,Amherst,no,52NH,,52NH,,,
511851,53NH,seaplane_base,Meredith Bay Seaplane Base,43.651658,-71.482614,503,NA,US,US-NH,Meredith,no,53NH,,53NH,,,
12008,54ME,small_airport,Cliff Dow Airport,43.949444,-70.320278,415,NA,US,US-ME,New Gloucester,no,54ME,,54ME,,,
12013,54NH,heliport,Flying Ridge Heliport,43.691881,-71.490959,785,NA,US,US-NH,Center Harbor,no,54NH,,54NH,,,
521581,54VT,heliport,Renaud Heliport,42.741097,-72.515141,379,NA,US,US-VT,Vernon,no,54VT,,54VT,,,
12050,55ME,small_airport,HIghland View Field,44.318056,-69.138333,600,NA,US,US-ME,Searsmont,no,55ME,,55ME,,,
349877,55NH,heliport,Oxbow Heliport,44.008028,-72.089611,475,NA,US,US-NH,Piermont,no,55NH,,55NH,,,
505267,56ME,small_airport,Russell Field,46.626398,-67.843934,748,NA,US,US-ME,Easton,no,56ME,,56ME,,,
345715,56NH,small_airport,Therriaults Landing Airport,43.481111,-71.056861,675,NA,US,US-NH,Middleton,no,56NH,,56NH,,,
12118,57B,small_airport,Islesboro Airport,44.302502,-68.910599,92,NA,US,US-ME,Islesboro,yes,57B,,57B,,https://en.wikipedia.org/wiki/Islesboro_Airport,
332085,57MA,heliport,Nantucket Cottage Hospital Helipad,41.275778,-70.101833,38,NA,US,US-MA,Nantucket,no,57MA,,57MA,,,
12135,57ME,small_airport,Dyer's Landing Airport,43.91780090332031,-70.85440063,441,NA,US,US-ME,Fryeburg,no,57ME,,57ME,,,
505268,57NH,heliport,Berry Pond Heliport,43.763025,-71.389231,575,NA,US,US-NH,Moultonborough,no,57NH,,57NH,,,
356201,57VT,heliport,Porter Medical Center Heliport,44.001713,-73.167958,388,NA,US,US-VT,Middlebury,no,57VT,,57VT,,,
12177,58MA,heliport,Boston Scientific Marlboro Heliport,42.361698150634766,-71.5089035,390,NA,US,US-MA,Marlboro,no,58MA,,58MA,,,
12201,59B,small_airport,Newton Field,45.632801,-70.248802,1178,NA,US,US-ME,Jackman,no,59B,,59B,,https://en.wikipedia.org/wiki/Newton_Field,
521639,59NH,heliport,Crawford Heliport,42.787842,-71.30922,181,NA,US,US-NH,Windham,no,59NH,,59NH,,,
12280,5B1,small_airport,John H Boylan State (Island Pond) Airport,44.789694,-71.826068,1194,NA,US,US-VT,Island Pond,no,,,5B1,,https://en.wikipedia.org/wiki/John_H._Boylan_State_Airport,
12283,5B6,small_airport,Falmouth Airpark,41.585602,-70.540398,43,NA,US,US-MA,Falmouth,no,5B6,,5B6,,https://en.wikipedia.org/wiki/Falmouth_Airpark,
12285,5B9,small_airport,Dean Memorial Airport,44.080601,-72.007896,582,NA,US,US-NH,North Haverhill,no,5B9,,5B9,,https://en.wikipedia.org/wiki/Dean_Memorial_Airport,
12320,5CT0,small_airport,Eastford Airport,41.91040039,-72.06809998,600,NA,US,US-CT,Eastford,no,5CT0,,5CT0,,,
12321,5CT1,heliport,Rondo Heliport,41.508399963378906,-73.03730011,530,NA,US,US-CT,Nangatuck,no,5CT1,,5CT1,,,
12322,5CT2,heliport,Hsi Heliport,41.252601623535156,-72.99569702,90,NA,US,US-CT,Orange,no,5CT2,,5CT2,,,
12323,5CT3,heliport,South Glastonbury Heliport,41.644500732421875,-72.57230377,550,NA,US,US-CT,South Glastonbury,no,5CT3,,5CT3,,,
12324,5CT4,heliport,Norwalk Hospital Heliport,41.112105,-73.422541,156,NA,US,US-CT,Norwalk,no,5CT4,,5CT4,,,
12325,5CT5,small_airport,Thomson Field,41.632301330566406,-73.21620178,820,NA,US,US-CT,Bethlehem,no,5CT5,,5CT5,,,
12326,5CT6,small_airport,Buell Farm Ultralightport,41.919498443603516,-72.11840057,670,NA,US,US-CT,Eastford,no,5CT6,,5CT6,,,
12327,5CT7,small_airport,Mile Creek Airport,41.30229949951172,-72.29620361,30,NA,US,US-CT,Old Lyme,no,5CT7,,5CT7,,,
12328,5CT8,closed,Canal Street Heliport,41.042684,-73.530836,50,NA,US,US-CT,Stamford,no,,,,,,"5CT8, 5CT8"
12469,5MA0,heliport,Federal Center Heliport,42.39649963378906,-71.21620178,220,NA,US,US-MA,Waltham,no,5MA0,,5MA0,,,
12470,5MA2,heliport,Fuller House Heliport,41.553199768066406,-70.55090332,30,NA,US,US-MA,East Falmouth,no,5MA2,,5MA2,,,
12471,5MA3,small_airport,Pasport Airport,42.187599182128906,-72.14309692,1010,NA,US,US-MA,West Brookfield,no,5MA3,,5MA3,,,
12472,5MA4,heliport,Double A Heliport,41.92449951171875,-70.7696991,90,NA,US,US-MA,Carver,no,5MA4,,5MA4,,,
12473,5MA5,heliport,Southend Farm Heliport,42.190101623535156,-71.35620117,190,NA,US,US-MA,Millis,no,5MA5,,5MA5,,,
12474,5MA6,heliport,St. Luke's Hospital Heliport,41.626568,-70.93863,123,NA,US,US-MA,New Bedford,no,5MA6,,5MA6,,,
12475,5MA7,heliport,Cochituate Heliport,42.30839920043945,-71.38169861,210,NA,US,US-MA,Natick,no,5MA7,,5MA7,,,
12476,5MA8,seaplane_base,South Pond Seaplane Base,42.00870132446289,-72.76260376,225,NA,US,US-MA,Southwick,no,5MA8,,5MA8,,,
12477,5MA9,closed,Allen's Pond Airport,41.512964,-71.029315,60,NA,US,US-MA,Westport,no,,,,,,5MA9
12488,5ME,seaplane_base,Brandy Pond Seaplane Base,43.95460129,-70.5911026,267,NA,US,US-ME,Naples,no,5ME,,5ME,,,
333473,5ME2,seaplane_base,Frogg Island Seaplane Base,43.870833,-70.424722,290,NA,US,US-ME,Gray,no,5ME2,,5ME2,,,
328794,5ME9,heliport,Maine General Medical Center-Augusta Heliport,44.361814,-69.779844,268,NA,US,US-ME,Augusta,no,5ME9,,5ME9,,,
12767,60B,seaplane_base,Moose River Seaplane Base,45.633399963378906,-70.2661972,1157,NA,US,US-ME,Jackman,no,60B,,60B,,,
12783,60M,small_airport,Spencer Airport,42.290501,-71.964699,1040,NA,US,US-MA,Spencer,no,60M,,60M,,https://en.wikipedia.org/wiki/Spencer_Airport,
12784,60MA,heliport,Grandview Farm Heliport,42.73429870605469,-70.86740112,11,NA,US,US-MA,Rowley,no,60MA,,60MA,,,
505270,60ME,heliport,Southern Maine Health LZ Heliport,43.478032,-70.491168,110,NA,US,US-ME,Biddeford,no,60ME,,60ME,,,
345616,60NH,heliport,Sherwood Forest Inc Heliport,43.809013,-71.091413,433,NA,US,US-NH,Freedom,no,60NH,,60NH,,,
12827,61MA,closed,Shirley Airport,42.527,-71.664497,400,NA,US,US-MA,Shirley,no,,,,,,61MA
12835,61NH,heliport,Hooksett Safety Center Heliport,43.055999755859375,-71.44670105,300,NA,US,US-NH,Hooksett,no,61NH,,61NH,,,
45521,62NH,heliport,Carleton Heliport,44.063611,-71.152778,920,NA,US,US-NH,Hales Location,no,62NH,,62NH,,,
506818,63ME,small_airport,Milo Field,45.239167,-68.961528,293,NA,US,US-ME,Milo,no,63ME,,63ME,,,
345566,63NH,heliport,Jackson Fire Heliport,44.141722,-71.181111,822,NA,US,US-NH,Jackson,no,63NH,,63NH,,,
12939,64CT,small_airport,Woodstock Airport,41.920956,-71.953117,465,NA,US,US-CT,Woodstock,no,64CT,,64CT,,,
12954,64ME,heliport,Dave Libby Heliport,43.739200592041016,-70.31289673,305,NA,US,US-ME,Falmouth,no,64ME,,64ME,,,
12981,65B,small_airport,Lubec Municipal Airport,44.83660125732422,-67.02700043,85,NA,US,US-ME,Lubec,no,65B,,65B,,,
325845,65NH,heliport,Tucker Farm Heliport,43.208861,-71.916305,1623,NA,US,US-NH,Bradford,no,65NH,,65NH,,,
13017,66B,small_airport,Gillespie Field,45.029622,-67.365967,200,NA,US,US-ME,Meddybemps,no,K66B,,66B,,https://en.wikipedia.org/wiki/Gillespie_Field_(Maine),
324492,66VT,small_airport,Symon Airport,43.882785,-73.2862,300,NA,US,US-VT,Shoreham,no,66VT,,66VT,,,
45452,67ME,heliport,Station-Kel Heliport,43.722825,-70.346667,246,NA,US,US-ME,Westbrook,no,67ME,,67ME,,,
329830,67VT,heliport,Fletcher Allen Health Care Heliport,44.4733367,-73.1888,336,NA,US,US-VT,Burlington,no,67VT,,67VT,,,
13109,68JY,seaplane_base,Hancock Pond Seaplane Base,43.93170166015625,-70.75669861,500,NA,US,US-ME,Denmark,no,68JY,,68JY,,,
329352,68ME,heliport,Maine Medical Center Heliport,43.653964,-70.27695,182,NA,US,US-ME,Portland,no,68ME,,68ME,,,
430425,68NH,heliport,Not Too Dusty Heliport,42.827717,-71.678447,293,NA,US,US-NH,Milford,no,68NH,,68NH,,,
45339,69CT,heliport,The Shore Heliport,41.319917,-71.993167,11,NA,US,US-CT,Mystic,no,69CT,,69CT,,,
533658,69MA,heliport,Monson Heliport,42.071744,-72.321186,598,NA,US,US-MA,Monson,no,69MA,,69MA,,,
13199,6B0,small_airport,Middlebury State Airport,43.986392,-73.09556,490,NA,US,US-VT,Middlebury,no,K6B0,,6B0,,https://en.wikipedia.org/wiki/Middlebury_State_Airport,
13202,6B6,small_airport,Minute Man Air Field,42.460298,-71.519031,268,NA,US,US-MA,Stow,no,K6B6,MMN,6B6,https://minutemanairfield.com/,https://en.wikipedia.org/wiki/Minute_Man_Air_Field,
13355,6MA0,seaplane_base,Lake Gardner Seaplane Base,42.86149978637695,-70.94339752,87,NA,US,US-MA,Amesbury,no,6MA0,,6MA0,,https://en.wikipedia.org/wiki/Lake_Gardner_Seaplane_Base,
13356,6MA1,heliport,Nason Hill Heliport,42.205992,-71.378855,182,NA,US,US-MA,Sherborn,no,6MA1,,6MA1,,,
13357,6MA2,small_airport,Meadowbrook Airport,42.86009979248047,-70.99659729,117,NA,US,US-MA,Amesbury,no,6MA2,,6MA2,,,
13358,6MA3,heliport,Scibelli Heliport,42.06290054321289,-72.72450256,225,NA,US,US-MA,Southwick,no,6MA3,,6MA3,,,
13359,6MA4,heliport,Ferncroft Village Heliport,42.59730148,-70.97029877,200,NA,US,US-MA,Middleton,no,6MA4,,6MA4,,,
13360,6MA5,heliport,Baystate Medical Ctr Heliport,42.12200165,-72.60089874,100,NA,US,US-MA,Springfield,no,6MA5,,6MA5,,,
13361,6MA6,heliport,Cotuit Heliport,41.617045,-70.44327,43,NA,US,US-MA,Cotuit,no,6MA6,,6MA6,,,
13362,6MA7,heliport,Quantum (Shrewsbury) Heliport,42.27289962768555,-71.69259644,545,NA,US,US-MA,Shrewsbury,no,6MA7,,6MA7,,,
13363,6MA8,seaplane_base,Acushnet River Seaplane Base,41.647300720214844,-70.91750336,,NA,US,US-MA,New Bedford,no,6MA8,,6MA8,,,
13364,6MA9,seaplane_base,Cuttyhunk Harbor Seaplane Base,41.423199,-70.927298,0,NA,US,US-MA,Cuttyhunk,no,6MA9,,6MA9,,,
326878,6ME6,small_airport,Abbots Airport,44.353332,-70.395,730,NA,US,US-ME,East Sumner,no,6ME6,,6ME6,,,
13631,6Y2,heliport,Candlelight Heliport,41.567901611328125,-73.46070099,675,NA,US,US-CT,New Milford,no,6Y2,,6Y2,,,
13639,70B,seaplane_base,Millinocket Seaplane Base,45.728381,-68.844486,492,NA,US,US-ME,Millinocket,no,70B,,70B,,https://en.wikipedia.org/wiki/Millinocket_Seaplane_Base,
13655,70MA,heliport,Tobey Hospital Heliport,41.755001068115234,-70.71389771,86,NA,US,US-MA,Wareham,no,70MA,,70MA,,,
345609,70ME,seaplane_base,SWN Pond Splash in Go Seaplane Base,43.520544,-70.648686,318,NA,US,US-ME,Lyman,no,70ME,,70ME,,,Swan Pond
324578,70NH,small_airport,Surette Heliport,43.264916,-71.548417,412,NA,US,US-NH,Concord,no,70NH,,70NH,,,
13693,71ME,small_airport,Twin Eagles Airport,43.96689987,-70.60109711,280,NA,US,US-ME,Naples,no,71ME,,71ME,,,
324708,71NH,heliport,Brady-Laconia Heliport,43.600928,-71.466115,516,NA,US,US-NH,Laconia,no,71NH,,71NH,,,
45449,72ME,small_airport,Philbrick Mountain Airport,44.635278,-68.6325,667,NA,US,US-ME,Ellsworth,no,72ME,,72ME,,,
537462,72NH,seaplane_base,Barndoor Island Seaplane Base,43.553853,-71.232264,504,NA,US,US-NH,Alton,no,72NH,,72NH,,,
505286,73NH,heliport,Haynes Landing,44.718915,-71.597143,1010,NA,US,US-NH,North Stratford,no,73NH,,73NH,,,
45448,74ME,seaplane_base,Labrador Landing Seaplane Base,44.065175,-69.533522,54,NA,US,US-ME,New Castle,no,74ME,,74ME,,,
505975,74NH,heliport,Mercier Heliport,43.065433,-71.499219,577,NA,US,US-NH,Hooksett,no,74NH,,74NH,,,
13834,75B,seaplane_base,Seven G S Seaplane Base,44.49169922,-69.99120331,329,NA,US,US-ME,Mount Vernon,no,75B,,75B,,,
13870,75RI,heliport,"Hopedene, LLC Heliport",41.480371,-71.297117,64,NA,US,US-RI,Newport,no,75RI,,75RI,,,
13882,76B,seaplane_base,Long Lake Seaplane Base,43.986944,-70.618611,268,NA,US,US-ME,Naples,no,,,76B,,"https://en.wikipedia.org/wiki/Long_Lake_Seaplane_Base_(Naples,_Maine)",
13905,76NH,heliport,Harris Homestead Heliport,43.35839844,-71.44120026,650,NA,US,US-NH,Loudon,no,76NH,,76NH,,,
13937,77ME,seaplane_base,Long Pond Seaplane Base,44.43339920043945,-70.21620178,474,NA,US,US-ME,North Livermore,no,77ME,,77ME,,,
13963,78B,seaplane_base,Buckhorn Camps Seaplane Base,45.65420150756836,-68.94950104,500,NA,US,US-ME,Norcross/Millinocket/,no,78B,,78B,,,
45967,78ME,small_airport,Eric's Field Airport,43.753056,-70.259167,97,NA,US,US-ME,Falmouth,no,78ME,,78ME,,,
328974,79ME,heliport,Houlton Regional Hospital Heliport,46.134466,-67.843133,393,NA,US,US-ME,Houlton,no,79ME,,79ME,,,
14055,7B3,small_airport,Hampton Airfield,42.961382,-70.830311,93,NA,US,US-NH,Hampton,no,K7B3,,7B3,,https://de.wikipedia.org/wiki/Hampton_Airfield,
14057,7B9,small_airport,Ellington Airport,41.925302,-72.457066,253,NA,US,US-CT,Ellington,no,K7B9,,7B9,,https://en.wikipedia.org/wiki/Ellington_Airport_(Connecticut),
14213,7MA0,heliport,Digital (Boxboro) Heliport,42.49869918823242,-71.4776001,210,NA,US,US-MA,Boxborough,no,7MA0,,7MA0,,,
14214,7MA1,heliport,Digital (Box 2) Heliport,42.49340057373047,-71.54370117,265,NA,US,US-MA,Boxborough,no,7MA1,,7MA1,,,
45469,7MA2,seaplane_base,Craig Cove Seaplane Base,41.780556,-70.947222,53,NA,US,US-MA,East Freetown,no,7MA2,,7MA2,,,
45473,80MA,heliport,Tew Mac Heliport,42.5975,-71.205,92,NA,US,US-MA,Tewksbury,no,80MA,,80MA,,,
353871,81ME,small_airport,French Field,44.619892,-68.594611,338,NA,US,US-ME,Ellsworth,no,81ME,,81ME,,,
45528,82NH,heliport,Summit Meadow Heliport,42.896841,-71.912779,1018,NA,US,US-NH,Peterborough,no,82NH,,82NH,,,
14590,83B,seaplane_base,Presque Isle Seaplane Base,46.7075,-68.061096,500,NA,US,US-ME,Presque Isle,no,,,83B,,,Northern Maine Regional Seaplane Base
504717,83NH,seaplane_base,Pier 19 Seaplane Base,43.654167,-71.288056,500,NA,US,US-NH,Tuftonborough,no,83NH,,83NH,,,
332216,84ME,small_airport,Cowboys Air Ranch Airport,45.551929,-67.746085,504,NA,US,US-ME,Brookton,no,84ME,,84ME,,,
14671,85B,seaplane_base,Shin Pond Seaplane Base,46.10419845581055,-68.56199646,780,NA,US,US-ME,Patten,no,85B,,85B,,,
45472,85MA,heliport,Lahey Hospital Heliport,42.484749,-71.201549,241,NA,US,US-MA,Burlington,no,85MA,,85MA,,,
505283,86ME,seaplane_base,Cathance Landing Seaplane Base,44.006528,-69.895222,0,NA,US,US-ME,Bowdoinham,no,86ME,,86ME,,,
14746,87B,seaplane_base,Portage Lake Municipal Seaplane Base,46.76029968261719,-68.48079681,608,NA,US,US-ME,Portage Lake,no,87B,,87B,,,
516628,87MA,heliport,Miara1 Helipad,42.533408,-71.134173,97,NA,US,US-MA,Wilmington,no,87MA,,87MA,,,
334284,87ME,heliport,High Note Heliport,44.151331,-70.793986,730,NA,US,US-ME,Sweden,no,87ME,,87ME,,,
505288,88ME,heliport,Deer Hill Heliport,44.15024,-70.669453,762,NA,US,US-ME,Waterford,no,88ME,,88ME,,,
14812,88VT,small_airport,Hawk's Nest Airport,44.878299713134766,-73.35030365,140,NA,US,US-VT,Isle Lamotte,no,88VT,,88VT,,,
334314,89ME,small_airport,Fox Field,44.404764,-69.676436,150,NA,US,US-ME,Vassalboro,no,89ME,,89ME,,,
14867,8B2,small_airport,Twin Mountain Airport,44.263995,-71.546981,1459,NA,US,US-NH,Twin Mountain,no,8B2,,8B2,,https://de.wikipedia.org/wiki/Twin_Mountain_Airport,
316954,8MA4,small_airport,Crow Island Airport (Pvt),42.417222,-71.494444,185,NA,US,US-MA,Stow,no,8MA4,,8MA4,http://www.crowislandairpark.com/,https://en.wikipedia.org/wiki/Crow_Island_Airport,
550693,8ME2,heliport,Peaks Island Ballfield Heliport,43.661608,-70.191033,52,NA,US,US-ME,Portland,no,8ME2,,8ME2,,,
45454,90ME,small_airport,Zinck Airport,44.523056,-70.545556,620,NA,US,US-ME,Rumford,no,90ME,,90ME,,,
322315,90NH,heliport,Daisy's Landing Heliport,43.637244,-71.153133,601,NA,US,US-NH,Wolfeboro,no,90NH,,90NH,,,
531424,91ME,small_airport,J & S Field,44.894075,-69.115707,298,NA,US,US-ME,Stetson,no,91ME,,91ME,,,
15338,92B,seaplane_base,Long Lake Seaplane Base,47.1931,-68.2314,581,NA,US,US-ME,Sinclair,no,92B,,92B,,"https://en.wikipedia.org/wiki/Long_Lake_Seaplane_Base_(Sinclair,_Maine)",
15354,92MA,heliport,Ames Heliport,42.63150024,-70.86509705,64,NA,US,US-MA,Hamilton,no,92MA,,92MA,,,
344096,92ME,small_airport,Buzzport Airport,45.22039,-68.63428,180,NA,US,US-ME,Passadumkeag,no,92ME,,92ME,,,
15359,92NH,heliport,Morrison Heliport,43.67851,-71.51719,720,NA,US,US-NH,Center Harbor,no,92NH,,92NH,,,
15378,93B,small_airport,Stonington Municipal Airport,44.17319869995117,-68.68029785,30,NA,US,US-ME,Stonington,no,93B,,93B,,https://en.wikipedia.org/wiki/Stonington_Municipal_Airport,
15395,93NH,heliport,Sharkey Heliport,43.525001525878906,-72.35829926,550,NA,US,US-NH,Plainfield,no,93NH,,93NH,,,
310037,94NH,small_airport,Tucker Farm Airport,43.47645,-71.7474,620,NA,US,US-NH,Andover,no,94NH,,94NH,,,
505976,95NH,heliport,Macy Heliport,43.063662,-71.453499,262,NA,US,US-NH,Hooksett,no,95NH,,95NH,,,
45457,98ME,small_airport,Greaton Airfield,43.572013,-70.525362,170,NA,US,US-ME,Saco,no,,,98M,,,98ME
15577,98NH,heliport,Skybast Heliport,43.21120071411133,-71.24009705,565,NA,US,US-NH,Northwood,no,98NH,,98NH,,,
331674,99ME,heliport,Isle Au Haut Heliport,44.075318,-68.632418,55,NA,US,US-ME,Isle Au Haut,no,99ME,,99ME,,,
15656,9B1,closed,Marlboro Airport,42.343201,-71.509002,285,NA,US,US-MA,Marlboro,no,,,,,https://en.wikipedia.org/wiki/Marlboro_Airport,"9B1, MXG, MXG"
15657,9B8,small_airport,Salmon River Airfield,41.589262,-72.44246,540,NA,US,US-CT,Marlborough,no,,,9B8,,https://en.wikipedia.org/wiki/Salmon_River_Airfield,
15801,9MA8,heliport,Wayne West Heliport,41.84680176,-70.7609024,90,NA,US,US-MA,Carver,no,9MA8,,9MA8,,,
16490,B06,small_airport,Basin Harbor Airport,44.191499,-73.358889,132,NA,US,US-VT,Vergennes,no,KB06,,B06,,,
16491,B10,small_airport,Bowman Field,44.41,-70.146103,327,NA,US,US-ME,Livermore Falls,no,B10,,B10,,https://en.wikipedia.org/wiki/Bowman_Field_(Maine),
16492,B18,seaplane_base,Alton Bay Seaplane Base,43.4776,-71.237,504,NA,US,US-NH,Alton Bay,no,B18,,B18,,https://en.wikipedia.org/wiki/Alton_Bay_Seaplane_Base,
16517,C44,small_airport,Toutant Airport,41.9557,-72.054398,770,NA,US,US-CT,Woodstock,no,C44,,C44,,https://en.wikipedia.org/wiki/Toutant_Airport,"CT04, George Campert Memorial, Putnam"
16958,CT00,heliport,Electro-Methods Inc Heliport,41.832000732421875,-72.60089874,104,NA,US,US-CT,South Windsor,no,CT00,,CT00,,,
16959,CT01,small_airport,Whelan Farms Airport,41.66619873046875,-73.18900299,1020,NA,US,US-CT,Bethlehem,no,CT01,,CT01,,,
16960,CT02,heliport,Clark Hill Heliport,41.642608,-72.562777,720,NA,US,US-CT,Glastonbury,no,CT02,,CT02,,,
16961,CT03,heliport,Bristol Hospital Heliport,41.675899505615234,-72.936203,406,NA,US,US-CT,Bristol,no,CT03,,CT03,,,
16962,CT04,closed,Grass Land Air Field,42.039002,-73.287103,705,NA,US,US-CT,North Canaan,no,,,,,,CT04
16963,CT05,heliport,Kaman Aerospace Corp Heliport,41.86199951171875,-72.69979858,164,NA,US,US-CT,Bloomfield,no,CT05,,CT05,,,
16964,CT06,heliport,Delta One Heliport,41.78900146484375,-72.66059875,21,NA,US,US-CT,Hartford,no,CT06,,CT06,,,
16965,CT07,small_airport,Skis Landing Area Airport,41.573393,-72.301318,510,NA,US,US-CT,Colchester,no,CT07,,CT07,,,
16966,CT08,closed,Gardner Lake Airport,41.50922,-72.244334,485,NA,US,US-CT,Colchester,no,,,,,https://web.archive.org/web/20161121062317/https://en.wikipedia.org/wiki/Gardner_Lake_Airport,CT08
16967,CT09,small_airport,Heckler Field,41.802898,-72.391701,793,NA,US,US-CT,Coventry,no,CT09,,CT09,,,
45336,CT10,heliport,Flat Rock Farm Heliport,41.742631,-71.8125,650,NA,US,US-CT,Sterling,no,CT10,,CT10,,,
16968,CT11,small_airport,Devils Hopyard Field,41.444,-72.338997,125,NA,US,US-CT,East Haddam,no,CT11,,CT11,,,
16969,CT12,heliport,St. Vincent's Medical Center Heliport,41.201251,-73.201543,148,NA,US,US-CT,Bridgeport,no,CT12,,CT12,,,
16970,CT13,small_airport,Yankee Airstrip,41.874482,-71.819472,720,NA,US,US-CT,East Killingly,no,CT13,,CT13,,,
16971,CT14,small_airport,Bancroft Airport,41.866798400878906,-72.61620331,52,NA,US,US-CT,East Windsor Hill,no,CT14,,CT14,,,
16972,CT15,small_airport,Wysocki Field,41.94540023803711,-72.4776001,390,NA,US,US-CT,Ellington,no,CT15,,CT15,,,
16973,CT16,seaplane_base,Fetske Seaplane Base,41.375099182128906,-72.37449646,,NA,US,US-CT,Essex,no,CT16,,CT16,,,
16974,CT17,heliport,United Technology Corp. Heliport,41.76570129394531,-72.67340088,351,NA,US,US-CT,Hartford,no,CT17,,CT17,,,
16975,CT18,heliport,State Emergency Heliport,41.764801025390625,-72.68199921,65,NA,US,US-CT,Hartford,no,CT18,,CT18,,,
16976,CT19,small_airport,Laurie Field,41.968201,-72.539803,129,NA,US,US-CT,Hazardville,no,CT19,,CT19,,,
16977,CT20,small_airport,Rankl Field,41.599591,-72.434278,350,NA,US,US-CT,Marlborough,no,CT20,,CT20,,,
16978,CT21,closed,C N Flagg Heliport,41.507831,-72.770417,333,NA,US,US-CT,Meriden,no,,,,,,CT21
16979,CT22,heliport,H O Penn-1 Heliport,41.660701751708984,-72.72840118,140,NA,US,US-CT,Newington,no,CT22,,CT22,,,
16980,CT23,heliport,Della Heliport,41.940101623535156,-72.60590363,115,NA,US,US-CT,Enfield,no,CT23,,CT23,,,
16981,CT24,small_airport,North Canaan Aviation Facilities Inc Airport,42.04539871,-73.33869934,658,NA,US,US-CT,North Canaan,no,CT24,,CT24,,,
16982,CT25,heliport,Miry Dam Heliport,41.556934,-73.124328,728,NA,US,US-CT,Middlebury,no,CT25,,CT25,,,
16983,CT26,heliport,Corporate Ridge Heliport,41.64870071411133,-72.66339874,180,NA,US,US-CT,Rocky Hill,no,CT26,,CT26,,,
16984,CT27,heliport,Tennessee F Heliport,42.00400161743164,-72.5401001,177,NA,US,US-CT,Enfield,no,CT27,,CT27,,,
16985,CT28,heliport,Veterans Home & Hospital Heliport,41.65840148925781,-72.64759827,150,NA,US,US-CT,Rocky Hill,no,CT28,,CT28,,,
16986,CT29,small_airport,Valley Farm Airport,42.013271,-72.472519,221,NA,US,US-CT,Somers,no,CT29,,CT29,,,
16987,CT30,closed,Nayaug Seaplane Landing Area Seaplane Base,41.639,-72.628098,3,NA,US,US-CT,South Glastonbury,no,,,,,,CT30
16988,CT31,closed,Swift Airport,41.965099,-72.332901,515,NA,US,US-CT,Stafford Springs,no,,,,,,CT31
16989,CT32,small_airport,Gallup Farm Airport,41.53540039,-71.83450317,440,NA,US,US-CT,Voluntown,no,CT32,,CT32,,,
16990,CT33,heliport,Clark Heliport,41.48149871826172,-72.80590057,127,NA,US,US-CT,Wallingford,no,CT33,,CT33,,,
16991,CT34,closed,USSC/North Haven Heliport,41.338468,-72.868692,12,NA,US,US-CT,North Haven,no,,,,,,CT34
16992,CT35,heliport,Hamilton Standard Heliport,41.93339920043945,-72.69950104,173,NA,US,US-CT,Windsor Locks,no,CT35,,CT35,,,
16993,CT36,small_airport,Gager Field,41.564499,-72.197304,465,NA,US,US-CT,Bozrah,no,CT36,,CT36,,,
16994,CT37,heliport,Sikorsky Bridgeport Heliport,41.161016,-73.204916,7,NA,US,US-CT,Bridgeport,no,CT37,,CT37,,,
16995,CT38,heliport,Corporate Center Heliport,41.71229934692383,-72.58789825,104,NA,US,US-CT,Glastonbury,no,CT38,,CT38,,,
16996,CT39,small_airport,Maplewood Farm Airport,41.468575,-72.708857,280,NA,US,US-CT,Durham,no,CT39,,CT39,,,
16997,CT40,heliport,Bob Thomas Ford Heliport,41.36980056762695,-72.91729736,80,NA,US,US-CT,Hamden,no,CT40,,CT40,,,
16998,CT41,heliport,General Electric Heliport,41.216757,-73.255618,122,NA,US,US-CT,Fairfield,no,CT41,,CT41,,,
16999,CT42,small_airport,Wings Ago Airstrip,41.850101470947266,-73.2661972,1585,NA,US,US-CT,Goshen,no,CT42,,CT42,,,
17000,CT43,small_airport,Spruce Airport,41.59370040893555,-71.93119812,200,NA,US,US-CT,Jewett City,no,CT43,,CT43,,,
17001,CT44,small_airport,Ripley Field,41.785701751708984,-73.30870056,1330,NA,US,US-CT,Litchfield,no,CT44,,CT44,,,
17002,CT45,heliport,Timex Heliport,41.55339813232422,-73.09819794,700,NA,US,US-CT,Middlebury,no,CT45,,CT45,,,
17003,CT46,heliport,Milford-Alexander Heliport,41.234500885009766,-73.03179932,20,NA,US,US-CT,Milford,no,CT46,,CT46,,,
17004,CT47,heliport,Consumer Products Div Warner-Lambert County Heliport,41.230098724365234,-73.03790283,20,NA,US,US-CT,Milford,no,CT47,,CT47,,,
17005,CT48,small_airport,Wychwood Field,41.436798095703125,-71.92539978,316,NA,US,US-CT,Mystic,no,CT48,,CT48,,,
17006,CT49,heliport,Plainville Heliport,41.667598724365234,-72.83229828,240,NA,US,US-CT,New Britain,no,CT49,,CT49,,,
17007,CT50,heliport,Marks Heliport,41.942901611328125,-72.70619965,150,NA,US,US-CT,East Granby,no,CT50,,CT50,,,
17008,CT51,small_airport,Docktors Field,41.53340148925781,-73.41619873,300,NA,US,US-CT,New Milford,no,CT51,,CT51,,,
17009,CT52,small_airport,Flying Ridge Airstrip,41.36819839477539,-73.29119873,610,NA,US,US-CT,Newtown,no,CT52,,CT52,,,
17010,CT53,heliport,Mountain View Heliport,42.01929855,-72.48370361,290,NA,US,US-CT,Somers,no,CT53,,CT53,,,
17011,CT54,heliport,North Branford Heliport,41.33570098876953,-72.79070282,255,NA,US,US-CT,North Branford,no,CT54,,CT54,,,
17012,CT55,heliport,North Haven Heliport,41.36729813,-72.88009644,10,NA,US,US-CT,North Haven,no,CT55,,CT55,,,
17013,CT56,closed,50 Washington Street Heliport,41.099472,-73.419483,143,NA,US,US-CT,Norwalk,no,,,,,,"CT56, CT56, CT56"
17014,CT57,heliport,Old Saybrook Heliport,41.30479813,-72.37169647,100,NA,US,US-CT,Old Saybrook,no,CT57,,CT57,,,
17015,CT58,closed,Portland Heliport,41.565899,-72.641502,40,NA,US,US-CT,Portland,no,,,,,,CT58
17016,CT59,small_airport,Good Hill Farm Airport,41.55009841918945,-73.2661972,949,NA,US,US-CT,Roxbury,no,CT59,,CT59,,,
17017,CT60,heliport,Ultimate Heliport,41.675201416015625,-72.89109802,253,NA,US,US-CT,Bristol,no,CT60,,CT60,,,
45340,CT62,heliport,Twin Manufacturing Company Heliport,41.809722,-72.609722,60,NA,US,US-CT,South Windsor,no,CT62,,CT62,,,
17018,CT63,heliport,Lake Compounce Heliport,41.640899658203125,-72.91960144,200,NA,US,US-CT,Bristol/Southington,no,CT63,,CT63,,,
17019,CT64,heliport,Pratt & Whitney Heliport,41.57509994506836,-72.89679718,140,NA,US,US-CT,Southington,no,CT64,,CT64,,,
17020,CT65,closed,Reed's Gap Heliport,41.469501,-72.741997,325,NA,US,US-CT,Wallingford,no,,,,,,
17021,CT66,small_airport,Long View Landing Airport,41.66680145263672,-73.28289795,940,NA,US,US-CT,Washington,no,CT66,,CT66,,,
17022,CT67,closed,A J Oster Company Heliport,41.6143,-73.059303,300,NA,US,US-CT,Watertown,no,,,,,,CT67
17023,CT68,heliport,Wauregan Heliport,41.75339889526367,-71.88760376,240,NA,US,US-CT,Wauregan,no,CT68,,CT68,,,
17024,CT69,heliport,Nasin Heliport,41.725399017333984,-72.1917038,242,NA,US,US-CT,Willimantic,no,CT69,,CT69,,,
17025,CT70,heliport,Wilsonville Heliport,42.013999938964844,-71.87950134,400,NA,US,US-CT,Wilsonville,no,CT70,,CT70,,,
17026,CT71,heliport,RTX Farmington Heliport,41.708928,-72.8021,362,NA,US,US-CT,Farmington,no,CT71,,CT71,,,"Otis Helistop Division of UTC, Raytheon Technologies"
17027,CT72,heliport,Cigna Heliport,41.81949996948242,-72.74819946,150,NA,US,US-CT,Bloomfield,no,CT72,,CT72,,,
17028,CT73,heliport,South Meadows Heliport,41.723201751708984,-72.86009979,200,NA,US,US-CT,Hartford,no,CT73,,CT73,,,
17029,CT74,small_airport,Westford Airstrip,41.951405,-72.181578,900,NA,US,US-CT,Ashford,no,CT74,,CT74,,,
17030,CT75,heliport,UConn Health Heliport,41.733284,-72.793125,340,NA,US,US-CT,Farmington,no,CT75,,CT75,,,Hurlbrink
17031,CT76,heliport,Chase Manhattan Bank of Ct Heliport,41.24229813,-73.15039825,200,NA,US,US-CT,Trumbull,no,CT76,,CT76,,,
17032,CT77,heliport,American Cyanamid County Heliport,41.43899917602539,-72.83789825,61,NA,US,US-CT,Wallingford,no,CT77,,CT77,,,
17033,CT78,seaplane_base,Lord Creek Seaplane Base,41.35150146484375,-72.35510254,,NA,US,US-CT,Lyme,no,CT78,,CT78,,,
17034,CT79,heliport,Merritt 7 Helistop,41.144471,-73.42854,105,NA,US,US-CT,Norwalk,no,CT79,,CT79,,,
17035,CT80,small_airport,Stonington Airpark,41.34730148,-71.8859024,7,NA,US,US-CT,Stonington,no,CT80,,CT80,,,
17036,CT82,seaplane_base,Quaddick Lake Seaplane Base,41.95840072631836,-71.8167038,403,NA,US,US-CT,Thompson,no,CT82,,CT82,,,
17037,CT83,heliport,Dow Chemical Heliport,41.388999938964844,-73.53099823,655,NA,US,US-CT,Danbury,no,CT83,,CT83,,,
17038,CT84,heliport,Partyka Chevrolet Heliport,41.37369918823242,-72.90869904,50,NA,US,US-CT,Hamden,no,CT84,,CT84,,,
17039,CT85,small_airport,Roberts Farm Airport,41.889801025390625,-72.61509705,37,NA,US,US-CT,East Windsor,no,CT85,,CT85,,,
17040,CT86,heliport,Sanford Heliport,41.433998107910156,-72.39399719,300,NA,US,US-CT,East Haddam,no,CT86,,CT86,,,
17041,CT87,seaplane_base,Bootlegger's Seaplane Base,41.99840164,-72.60590363,35,NA,US,US-CT,Enfield,no,CT87,,CT87,,,
17042,CT88,closed,Rentschler Heliport,41.7517,-72.6253,30,NA,US,US-CT,East Hartford,no,,,,,https://en.wikipedia.org/wiki/Rentschler_Heliport,"EHT, CT88"
17043,CT89,heliport,Itt Heliport,41.27510070800781,-73.13289642,327,NA,US,US-CT,Shelton,no,CT89,,CT89,,,
17044,CT90,heliport,Dairy Mart Farms Inc Heliport,41.98149871826172,-72.58509827,118,NA,US,US-CT,Enfield,no,CT90,,CT90,,,
17045,CT91,closed,USSC Heliport,41.152318,-73.427343,165,NA,US,US-CT,Norwalk,no,,,,,,"CT91, United States Surgical Corporation"
17046,CT92,heliport,Bemer Heliport,41.62289810180664,-72.6006012,160,NA,US,US-CT,Portland,no,CT92,,CT92,,,
17047,CT93,heliport,Backus Hospital Heliport,41.54209899902344,-72.09230042,109,NA,US,US-CT,Norwich,no,CT93,,CT93,,,
17048,CT94,closed,"Tilcon Roncari, Inc. Heliport",41.936501,-72.735101,200,NA,US,US-CT,East Granby,no,,,,,,CT94
17049,CT95,heliport,Meriden-Wallingford Hospital Heliport,41.53340148925781,-72.80979919,145,NA,US,US-CT,Meriden,no,CT95,,CT95,,,
17050,CT96,small_airport,Green Acres Airport,41.709355,-72.971253,950,NA,US,US-CT,Bristol,no,CT96,,CT96,,,
17051,CT97,heliport,Shoreline Clinic Heliport,41.32899856567383,-72.42810059,59,NA,US,US-CT,Essex,no,CT97,,CT97,,,
17052,CT98,heliport,Middlesex Hospital Heliport,41.554841,-72.64614,57,NA,US,US-CT,Middletown,no,CT98,,CT98,,,
17053,CT99,heliport,Old Saybrook Police Heliport,41.29069900512695,-72.3789978,16,NA,US,US-CT,Old Saybrook,no,CT99,,CT99,,,
18348,K0B1,small_airport,Bethel Regional Airport,44.425201,-70.809896,654,NA,US,US-ME,Bethel,no,,,0B1,http://www.bethelregionalairport.com/,https://en.wikipedia.org/wiki/Bethel_Regional_Airport,Dyke Airport
18350,K0B5,small_airport,Turners Falls Airport,42.59140015,-72.52279663,356,NA,US,US-MA,Montague,no,0B5,,0B5,http://turnersfallsairport.com/,https://en.wikipedia.org/wiki/Turners_Falls_Airport,
18450,K1B0,small_airport,Dexter Regional Airport,45.004101,-69.237,533,NA,US,US-ME,Dexter,no,K1B0,,1B0,,https://en.wikipedia.org/wiki/Dexter_Regional_Airport,
18452,K1B2,small_airport,Katama Airpark,41.358299,-70.524399,18,NA,US,US-MA,Edgartown,no,1B2,,1B2,,https://en.wikipedia.org/wiki/Katama_Airpark,
18453,K1B6,small_airport,Hopedale Industrial Park Airport,42.106499,-71.510101,269,NA,US,US-MA,Hopedale,no,K1B6,,1B6,,https://en.wikipedia.org/wiki/Hopedale_Industrial_Park_Airport,
18454,K1B9,small_airport,Mansfield Municipal Airport,42.000099182099994,-71.19680023,122,NA,US,US-MA,Mansfield,no,1B9,,1B9,,https://en.wikipedia.org/wiki/Mansfield_Municipal_Airport,
18570,K2B3,small_airport,Parlin Field,43.3881,-72.189301,784,NA,US,US-NH,Newport,no,K2B3,NWH,2B3,,https://en.wikipedia.org/wiki/Parlin_Field,
18571,K2B7,small_airport,Pittsfield Municipal Airport,44.768501,-69.374397,198,NA,US,US-ME,Pittsfield,no,,,2B7,http://web.archive.org/web/20210627105317/http://www.maine.gov/mdot/aviation/docs/airportmasterplans/Pittsfield_AMPU-2017.pdf,https://en.wikipedia.org/wiki/Pittsfield_Municipal_Airport_(Maine),
18672,K3B0,small_airport,Southbridge Municipal Airport,42.10089874267578,-72.03839874,699,NA,US,US-MA,Southbridge,no,K3B0,,3B0,,https://en.wikipedia.org/wiki/Southbridge_Municipal_Airport,
18673,K3B1,small_airport,Greenville Municipal Airport,45.463001,-69.551598,1401,NA,US,US-ME,Greenville,no,K3B1,,3B1,,https://en.wikipedia.org/wiki/Greenville_Municipal_Airport_(Maine),
18675,K3B4,small_airport,Seacoast Airfield,43.14316,-70.773566,130,NA,US,US-ME,Eliot,no,,,3B4,,,Littlebrook Air Park
18676,K3B5,small_airport,Twitchell Airport,44.1889,-70.232903,356,NA,US,US-ME,Turner,no,K3B5,,3B5,,https://en.wikipedia.org/wiki/Twitchell_Airport,
18773,K43B,small_airport,Deblois Flight Strip,44.726398,-67.9907,217,NA,US,US-ME,Deblois,no,K43B,,43B,,https://en.wikipedia.org/wiki/Deblois_Flight_Strip,
18809,K4B8,small_airport,Robertson Field,41.690399169921875,-72.8647995,200,NA,US,US-CT,Plainville,no,K4B8,,4B8,,https://en.wikipedia.org/wiki/Robertson_Field,
18912,K5M3,small_airport,Moultonborough Airport,43.767859,-71.387615,571,NA,US,US-NH,Moultonborough,no,,,4MB,https://northcountryairbase.com/,,"5M3, 53NH, North County Airbase"
18952,K63B,small_airport,Limington Harmon Airport,43.76300048828125,-70.67250061,291,NA,US,US-ME,Limington,no,K63B,,63B,,,
19051,K7B2,small_airport,Northampton Airport,42.328098,-72.611397,121,NA,US,US-MA,Northampton,no,,,7B2,http://www.northamptonairport.com/,https://en.wikipedia.org/wiki/Northampton_Airport,
19052,K7B6,small_airport,Skylark Airpark,41.929298,-72.574501,120,NA,US,US-CT,Warehouse Point,no,K7B6,,7B6,,https://en.wikipedia.org/wiki/Skylark_Airpark,
19096,K81B,small_airport,Oxford County Regional Airport,44.157398,-70.4813,346,NA,US,US-ME,Oxford,no,K81B,,81B,,https://en.wikipedia.org/wiki/Oxford_County_Regional_Airport,
19118,K8B0,small_airport,Steven A. Bean Municipal Airport,44.991902,-70.664597,1825,NA,US,US-ME,Rangeley,no,,,8B0,,https://en.wikipedia.org/wiki/Steven_A._Bean_Municipal_Airport,
19119,K8B1,small_airport,Hawthorne Feather Airpark,43.061958,-71.905343,600,NA,US,US-NH,Hillsboro,no,K8B1,,8B1,,https://en.wikipedia.org/wiki/Hawthorne%E2%80%93Feather_Airpark,
19120,K8B5,small_airport,Tanner Hiller Airport,42.3564,-72.130096,584,NA,US,US-MA,Barre/Barre Plains,no,K8B5,,8B5,,https://en.wikipedia.org/wiki/Tanner%E2%80%93Hiller_Airport,
3360,KACK,medium_airport,Nantucket Memorial Airport,41.25310135,-70.06020355,47,NA,US,US-MA,Nantucket,yes,KACK,ACK,ACK,,https://en.wikipedia.org/wiki/Nantucket_Memorial_Airport,
19248,KAFN,small_airport,Jaffrey Airfield Silver Ranch Airport,42.805099,-72.002998,1040,NA,US,US-NH,Jaffrey,no,KAFN,AFN,AFN,http://silverranchairpark.com/,https://en.wikipedia.org/wiki/Jaffrey_Airport_%E2%80%93_Silver_Ranch_Airpark,
19300,KAQW,small_airport,Harriman and West Airport,42.6959,-73.170403,654,NA,US,US-MA,North Adams,no,KAQW,,AQW,,https://en.wikipedia.org/wiki/Harriman-and-West_Airport,
19310,KASH,small_airport,Nashua Airport / Boire Field,42.7817,-71.514801,199,NA,US,US-NH,Nashua,no,KASH,ASH,ASH,,https://en.wikipedia.org/wiki/Nashua_Airport,
19321,KAUG,medium_airport,Augusta State Airport,44.320598602299995,-69.79730225,352,NA,US,US-ME,Augusta,yes,KAUG,AUG,AUG,,https://en.wikipedia.org/wiki/Augusta_State_Airport,
29882,KAYE,closed,Fort Devens Moore Army Air Field,42.571961,-71.603766,269,NA,US,US-MA,Ayer,no,,,,,https://en.wikipedia.org/wiki/Moore_Army_Air_Field,"KAYE, KAYE, AYE"
19347,KB19,small_airport,Biddeford Municipal Airport,43.4641,-70.472397,157,NA,US,US-ME,Biddeford,no,,,B19,,https://en.wikipedia.org/wiki/Biddeford_Municipal_Airport,
19348,KB21,small_airport,Sugarloaf Regional Airport,45.085339,-70.216394,885,NA,US,US-ME,Carrabassett,no,KB21,,B21,,https://en.wikipedia.org/wiki/Sugarloaf_Regional_Airport,
3393,KBAF,medium_airport,Westfield-Barnes Regional Airport,42.157799,-72.715599,271,NA,US,US-MA,Westfield,no,KBAF,BAF,BAF,,https://en.wikipedia.org/wiki/Westfield-Barnes_Regional_Airport,"Barnes Municipal Airport, Springfield"
3396,KBDL,large_airport,Bradley International Airport,41.93851,-72.688066,173,NA,US,US-CT,Hartford,yes,KBDL,BDL,BDL,http://www.bradleyairport.com/,https://en.wikipedia.org/wiki/Bradley_International_Airport,"HFD, Hartford"
3397,KBDR,medium_airport,Igor I Sikorsky Memorial Airport,41.163502,-73.126198,9,NA,US,US-CT,Bridgeport,no,KBDR,BDR,BDR,,https://en.wikipedia.org/wiki/Sikorsky_Memorial_Airport,
3398,KBED,medium_airport,Laurence G Hanscom Field,42.470001,-71.289001,133,NA,US,US-MA,Bedford,yes,KBED,BED,BED,http://www.massport.com/hansc/,https://en.wikipedia.org/wiki/Hanscom_Field,Hanscom Air Force Base
3405,KBGR,medium_airport,Bangor International Airport,44.8074,-68.828102,192,NA,US,US-ME,Bangor,yes,KBGR,BGR,BGR,,https://en.wikipedia.org/wiki/Bangor_International_Airport,
19373,KBHB,medium_airport,Hancock County-Bar Harbor Airport,44.45000076,-68.3615036,83,NA,US,US-ME,Bar Harbor,yes,KBHB,BHB,BHB,,https://en.wikipedia.org/wiki/Hancock_County-Bar_Harbor_Airport,
16500,KBID,small_airport,Block Island State Airport,41.168446,-71.578631,108,NA,US,US-RI,Block Island,yes,KBID,BID,BID,http://www.blockislandri.net/blockislandairport.htm,https://en.wikipedia.org/wiki/Block_Island_State_Airport,
19392,KBML,small_airport,Berlin Regional Airport,44.57540131,-71.17590332,1161,NA,US,US-NH,Berlin,no,KBML,BML,BML,,https://en.wikipedia.org/wiki/Berlin_Municipal_Airport,
3422,KBOS,large_airport,Logan International Airport,42.36197,-71.0079,20,NA,US,US-MA,Boston,yes,KBOS,BOS,BOS,http://www.massport.com/logan/,https://en.wikipedia.org/wiki/Logan_International_Airport,General Edward Lawrence Logan International Airport
19408,KBST,small_airport,Belfast Municipal Airport,44.409401,-69.011902,198,NA,US,US-ME,Belfast,no,KBST,,BST,,https://en.wikipedia.org/wiki/Belfast_Municipal_Airport,
3430,KBTV,medium_airport,Burlington International Airport,44.471901,-73.153297,335,NA,US,US-VT,South Burlington,yes,KBTV,BTV,BTV,http://www.vermontairports.com/btv.html,https://en.wikipedia.org/wiki/Burlington_International_Airport,
3433,KBVY,medium_airport,Beverly Regional Airport,42.584202,-70.916496,107,NA,US,US-MA,Beverly / Danvers,no,KBVY,BVY,BVY,http://www.beverlyairport.com/,https://en.wikipedia.org/wiki/Beverly_Municipal_Airport,
3440,KCAR,medium_airport,Caribou Municipal Airport,46.871498,-68.017899,626,NA,US,US-ME,Caribou,no,KCAR,CAR,CAR,,https://en.wikipedia.org/wiki/Caribou_Municipal_Airport,
18977,KCDA,small_airport,Caledonia County Airport,44.56909943,-72.01799774,1188,NA,US,US-VT,Lyndonville,no,KCDA,LLX,CDA,,https://en.wikipedia.org/wiki/Caledonia_County_Airport,Formerly 6B8
3444,KCEF,medium_airport,Westover Metropolitan Airport / Westover Air Reserve Base,42.194,-72.534798,241,NA,US,US-MA,Chicopee,no,KCEF,CEF,CEF,,https://en.wikipedia.org/wiki/Westover_Air_Reserve_Base/Metropolitan_Airport,
19523,KCNH,small_airport,Claremont Municipal Airport,43.37039948,-72.36869812,545,NA,US,US-NH,Claremont,no,KCNH,CNH,CNH,http://www.claremontnh.com/residents/claremont-municipal-airport.aspx,https://en.wikipedia.org/wiki/Claremont_Municipal_Airport,
19534,KCON,medium_airport,Concord Municipal Airport,43.20270157,-71.50229645,342,NA,US,US-NH,Concord,no,KCON,CON,CON,http://www.concordnh.gov/facilities/facility/details/Concord-Municipal-Airport-31,https://en.wikipedia.org/wiki/Concord_Municipal_Airport,
19547,KCQX,small_airport,Chatham Municipal Airport,41.68840026855469,-69.98950195,68,NA,US,US-MA,Chatham,no,KCQX,,CQX,,https://en.wikipedia.org/wiki/Chatham_Municipal_Airport,
28132,KCWN,closed,White Mountain Airport,44.02000045776367,-71.11000061,334,NA,US,US-NH,North Conway,no,,,,,,"KCWN, KCWN"
19616,KDAW,small_airport,Skyhaven Airport,43.2841,-70.929298,322,NA,US,US-NH,Rochester,no,KDAW,,DAW,https://skyhavennh.com/,https://en.wikipedia.org/wiki/Skyhaven_Airport_(New_Hampshire),
19620,KDDH,small_airport,William H Morse State Airport,42.8913,-73.246399,827,NA,US,US-VT,Bennington,no,KDDH,,DDH,https://vtrans.vermont.gov/aviation/airports/williamhmorse,https://en.wikipedia.org/wiki/William_H._Morse_State_Airport,5B5
19676,KDXR,medium_airport,Danbury Municipal Airport,41.371656,-73.482227,458,NA,US,US-CT,Danbury,no,KDXR,DXR,DXR,,https://en.wikipedia.org/wiki/Danbury_Municipal_Airport,
3504,KEEN,medium_airport,Dillant Hopkins Airport,42.898399,-72.270798,488,NA,US,US-NH,Keene,no,KEEN,EEN,EEN,https://ci.keene.nh.us/keene-dillant-hopkins-airport,https://en.wikipedia.org/wiki/Dillant-Hopkins_Airport,
19732,KEFK,small_airport,Northeast Kingdom International Airport,44.888802,-72.229202,930,NA,US,US-VT,Newport,no,KEFK,EFK,EFK,,https://en.wikipedia.org/wiki/Newport_State_Airport_(Vermont),Newport State Airport
29838,KEHT,closed,East Hartford Airport,41.75419998168945,-72.62470245,49,NA,US,US-CT,Hartford,no,,,,,,"KEHT, KEHT, EHT"
19765,KEPM,small_airport,Eastport Municipal Airport,44.910099,-67.012703,45,NA,US,US-ME,Eastport,no,KEPM,,EPM,,https://en.wikipedia.org/wiki/Eastport_Municipal_Airport,
17181,KERR,small_airport,Errol Airport,44.7925,-71.1642,1245,NA,US,US-NH,Errol,no,KERR,ERR,ERR,http://www.nh.gov/dot/org/aerorailtransit/aeronautics/sasp/airports/errol.htm,https://de.wikipedia.org/wiki/Errol_Airport,
3519,KEWB,medium_airport,New Bedford Regional Airport,41.67610168457031,-70.95690155,80,NA,US,US-MA,New Bedford,yes,KEWB,EWB,EWB,,https://en.wikipedia.org/wiki/New_Bedford_Regional_Airport,
19870,KFIT,small_airport,Fitchburg Municipal Airport,42.554100036621094,-71.75900269,348,NA,US,US-MA,Fitchburg,no,KFIT,,FIT,,https://en.wikipedia.org/wiki/Fitchburg_Municipal_Airport,
29862,KFLR,closed,Fall River Airport,41.75555,-71.10907,190,NA,US,US-MA,Fall River,no,,,,,,"KFLR, KFLR, FLR"
19879,KFMH,small_airport,Cape Cod Coast Guard Air Station,41.657899,-70.52163,131,NA,US,US-MA,Falmouth,no,KFMH,FMH,FMH,http://www.uscg.mil/d1/airstacapecod/,https://en.wikipedia.org/wiki/Coast_Guard_Air_Station_Cape_Cod,"Otis Airforce Base, Otis Air National Guard Base"
19899,KFSO,small_airport,Franklin County State Airport,44.9403,-73.097504,228,NA,US,US-VT,Swanton,no,KFSO,,FSO,,https://en.wikipedia.org/wiki/Franklin_County_State_Airport,Highgate
19906,KFVE,small_airport,Northern Aroostook Regional Airport,47.28549957,-68.31279755,988,NA,US,US-ME,Frenchville,no,KFVE,WFK,FVE,,https://en.wikipedia.org/wiki/Northern_Aroostook_Regional_Airport,
19928,KGBR,small_airport,Walter J. Koladza Airport,42.18420029,-73.40319824,739,NA,US,US-MA,Great Barrington,no,KGBR,GBR,GBR,http://greatbarringtonairport.com/,https://en.wikipedia.org/wiki/Walter_J._Koladza_Airport,
19935,KGDM,small_airport,Gardner Municipal Airport,42.54999924,-72.01609802,955,NA,US,US-MA,Gardner,no,KGDM,GDM,GDM,,https://en.wikipedia.org/wiki/Gardner_Municipal_Airport_(Massachusetts),
19949,KGHG,small_airport,Marshfield Municipal George Harlow Field,42.097665,-70.67283,11,NA,US,US-MA,Marshfield,no,KGHG,,GHG,,https://en.wikipedia.org/wiki/Marshfield_Municipal_Airport_(Massachusetts),3B2
3560,KGON,medium_airport,Groton New London Airport,41.330101,-72.045097,9,NA,US,US-CT,Groton,no,KGON,GON,GON,https://ctairports.org/airports/groton-newlondon/,https://en.wikipedia.org/wiki/Groton-New_London_Airport,New London
3576,KHFD,medium_airport,Hartford Brainard Airport,41.73669815,-72.6493988,18,NA,US,US-CT,Hartford,no,KHFD,HFD,HFD,,https://en.wikipedia.org/wiki/Hartford-Brainard_Airport,
20051,KHIE,small_airport,Mount Washington Regional Airport,44.36752,-71.545765,1074,NA,US,US-NH,Whitefield,no,KHIE,HIE,HIE,http://www.mountwashingtonairport.com/,https://en.wikipedia.org/wiki/Mount_Washington_Regional_Airport,
20095,KHUL,medium_airport,Houlton International Airport,46.12310028,-67.792099,489,NA,US,US-ME,Houlton,no,KHUL,HUL,HUL,,https://en.wikipedia.org/wiki/Houlton_International_Airport,Houlton AAF
3599,KHVN,medium_airport,Tweed New Haven Airport,41.26369858,-72.88680267,12,NA,US,US-CT,New Haven,yes,KHVN,HVN,HVN,,https://en.wikipedia.org/wiki/Tweed_New_Haven_Regional_Airport,
3600,KHYA,medium_airport,Cape Cod Gateway Airport,41.6693,-70.280403,54,NA,US,US-MA,Hyannis,yes,KHYA,HYA,HYA,,https://en.wikipedia.org/wiki/Barnstable_Municipal_Airport,"Barnstable, Boardman Polando"
20166,KIJD,small_airport,Windham Airport,41.743999,-72.180298,247,NA,US,US-CT,North Windham,no,KIJD,,IJD,,https://en.wikipedia.org/wiki/Windham_Airport,
20197,KIWI,small_airport,Wiscasset Airport,43.96139908,-69.71260071,70,NA,US,US-ME,Wiscasset,no,KIWI,ISS,IWI,http://www.wiscasset.org/departments/airport/,https://en.wikipedia.org/wiki/Wiscasset_Airport,
20202,KIZG,small_airport,Eastern Slopes Regional Airport,43.991100311299995,-70.94789886,454,NA,US,US-ME,Fryeburg,no,KIZG,FRY,IZG,,https://en.wikipedia.org/wiki/Eastern_Slopes_Regional_Airport,
18258,KJSD,heliport,Sikorsky Heliport,41.249298095703125,-73.09680176,20,NA,US,US-CT,Stratford,no,KJSD,,JSD,,,
20325,KLCI,small_airport,Laconia Municipal Airport,43.572701,-71.4189,545,NA,US,US-NH,Laconia / Gilford,no,KLCI,LCI,LCI,http://www.laconiaairport.com/,https://en.wikipedia.org/wiki/Laconia_Municipal_Airport,
3639,KLEB,medium_airport,Lebanon Municipal Airport,43.626098632799994,-72.30419922,603,NA,US,US-NH,Lebanon,yes,KLEB,LEB,LEB,http://flyleb.com/,https://en.wikipedia.org/wiki/Lebanon_Municipal_Airport_(New_Hampshire),
20331,KLEW,small_airport,Auburn Lewiston Municipal Airport,44.04850006,-70.28350067,288,NA,US,US-ME,Auburn/Lewiston,no,KLEW,LEW,LEW,http://www.flytome.com/,https://en.wikipedia.org/wiki/Auburn/Lewiston_Municipal_Airport,NAAF Lewiston
20371,KLRG,small_airport,Lincoln Regional Airport,45.362202,-68.534698,208,NA,US,US-ME,Lincoln,no,KLRG,,LRG,,https://en.wikipedia.org/wiki/Lincoln_Regional_Airport_(Maine),
3660,KLWM,medium_airport,Lawrence Municipal Airport,42.717201232899995,-71.12339783,148,NA,US,US-MA,Lawrence,no,KLWM,LWM,LWM,http://www.lawrencemunicipalairport.com/,https://en.wikipedia.org/wiki/Lawrence_Municipal_Airport_(Massachusetts),
12281,KLZD,small_airport,Danielson Airport,41.819698333740234,-71.90100098,238,NA,US,US-CT,Danielson,no,KLZD,,LZD,,https://en.wikipedia.org/wiki/Danielson_Airport,Formerly 5B3
3684,KMHT,medium_airport,Manchester-Boston Regional Airport,42.932598,-71.435699,266,NA,US,US-NH,Manchester,yes,KMHT,MHT,MHT,,https://en.wikipedia.org/wiki/Manchester-Boston_Regional_Airport,
20526,KMLT,small_airport,Millinocket Municipal Airport,45.6478,-68.6856,408,NA,US,US-ME,Millinocket,no,KMLT,MLT,MLT,,https://en.wikipedia.org/wiki/Millinocket_Municipal_Airport,
20529,KMMK,small_airport,Meriden Markham Municipal Airport,41.50870132446289,-72.82949829,103,NA,US,US-CT,Meriden,no,KMMK,,MMK,,https://en.wikipedia.org/wiki/Meriden_Markham_Municipal_Airport,
20551,KMPV,medium_airport,Edward F Knapp State Airport,44.20349884,-72.56230164,1166,NA,US,US-VT,Barre/Montpelier,no,KMPV,MPV,MPV,,https://en.wikipedia.org/wiki/Edward_F._Knapp_State_Airport,
20575,KMVL,small_airport,Morrisville-Stowe State Airport,44.534599,-72.613998,732,NA,US,US-VT,Morrisville,no,KMVL,MVL,MVL,,https://en.wikipedia.org/wiki/Morrisville-Stowe_State_Airport,
20576,KMVM,small_airport,Machias Valley Airport,44.70309829711914,-67.47859955,96,NA,US,US-ME,Machias,no,KMVM,,MVM,,https://en.wikipedia.org/wiki/Machias_Valley_Airport,
20578,KMVY,small_airport,Martha's Vineyard Airport,41.39310074,-70.61430359,67,NA,US,US-MA,Martha's Vineyard,yes,KMVY,MVY,MVY,,https://en.wikipedia.org/wiki/Martha's_Vineyard_Airport,
547261,KMWN,heliport,Mount Washington Observatory,44.270278,-71.303333,6288,NA,US,US-NH,,no,KMWN,,,https://mountwashington.org,https://en.wikipedia.org/wiki/Mount_Washington_Observatory,Mount Washington
3729,KNHZ,medium_airport,Brunswick Executive Airport,43.89220047,-69.93859863,72,NA,US,US-ME,Brunswick,no,KBXM,NHZ,BXM,http://mrra.us/brunswick-executive-airport/,https://en.wikipedia.org/wiki/Brunswick_Executive_Airport,"KHNZ, Brunswick NAS"
300161,KNLW,heliport,Naval Station Newport Helipad,41.50388889,-71.32583333,1,NA,US,US-RI,Newport,no,KNLW,,,,,
30431,KNZW,closed,South Weymouth Naval Air Station,42.148602,-70.9394,150,NA,US,US-MA,South Weymouth,no,,,,https://www.bracpmo.navy.mil/brac_bases/northeast/former_nas_south_weymouth.html,https://en.wikipedia.org/wiki/Naval_Air_Station_South_Weymouth,"NZW, KNZW, Shea Field"
3748,KOLD,small_airport,Dewitt Field - Old Town Municipal Airport,44.952801,-68.674301,126,NA,US,US-ME,Old Town,no,KOLD,OLD,OLD,,https://en.wikipedia.org/wiki/Old_Town_Municipal_Airport_and_Seaplane_Base,
3753,KOQU,medium_airport,Quonset State Airport,41.5970993,-71.41210175,18,NA,US,US-RI,North Kingstown,no,KOQU,NCO,OQU,,https://en.wikipedia.org/wiki/Quonset_State_Airport,Quonset Point NAS
20763,KORE,small_airport,Orange Municipal Airport,42.57009888,-72.28859711,555,NA,US,US-MA,Orange,no,KORE,,ORE,http://www.flyore.com/,https://en.wikipedia.org/wiki/Orange_Municipal_Airport,
3756,KORH,medium_airport,Worcester Regional Airport,42.2673,-71.875702,1009,NA,US,US-MA,Worcester,yes,KORH,ORH,ORH,,https://en.wikipedia.org/wiki/Worcester-Metrowest-Boston_Airport,
20777,KOWD,medium_airport,Norwood Memorial Airport,42.19049835,-71.17289734,49,NA,US,US-MA,Norwood,no,KOWD,OWD,OWD,http://www.ci.norwood.ma.us/Airport/Default.htm,https://en.wikipedia.org/wiki/Norwood_Memorial_Airport,
20779,KOWK,small_airport,Central Maine/Norridgewock Airport,44.7155,-69.866501,270,NA,US,US-ME,Norridgewock,no,KOWK,OWK,OWK,http://www.townofnorridgewock.com/airport.html,https://en.wikipedia.org/wiki/Central_Maine_Airport_of_Norridgewock,Central Maine Regional Airport
20782,KOXC,small_airport,Waterbury Oxford Airport,41.47859955,-73.1352005,726,NA,US,US-CT,Oxford,no,KOXC,OXC,OXC,http://www.ctairports.org/GeneralAviationAirports/WaterburyOxford/AbouttheAirport.aspx,https://en.wikipedia.org/wiki/Waterbury%E2%80%93Oxford_Airport,
20852,KPNN,small_airport,Princeton Municipal Airport,45.20069885,-67.56439972,266,NA,US,US-ME,Princeton,no,KPNN,PNN,PNN,,https://en.wikipedia.org/wiki/Princeton_Municipal_Airport_(Maine),
3787,KPQI,medium_airport,Presque Isle International Airport,46.688999,-68.0448,534,NA,US,US-ME,Presque Isle,yes,KPQI,PQI,PQI,,https://en.wikipedia.org/wiki/Presque_Isle_International_Airport,Northern Maine Regional
20871,KPSF,small_airport,Pittsfield Municipal Airport,42.4268,-73.2929,1188,NA,US,US-MA,Pittsfield,no,KPSF,PSF,PSF,https://www.cityofpittsfield.org/departments/airport/index.php,https://en.wikipedia.org/wiki/Pittsfield_Municipal_Airport_(Massachusetts),
3791,KPSM,medium_airport,Portsmouth International at Pease Airport,43.07789993,-70.82330322,100,NA,US,US-NH,Portsmouth,yes,KPSM,PSM,PSM,,https://en.wikipedia.org/wiki/Pease_International_Airport,
20885,KPVC,small_airport,Provincetown Municipal Airport,42.07189941,-70.2213974,9,NA,US,US-MA,Provincetown,no,KPVC,PVC,PVC,,https://en.wikipedia.org/wiki/Provincetown_Municipal_Airport,
3795,KPVD,large_airport,Theodore Francis Green State Airport,41.725038,-71.425668,55,NA,US,US-RI,Warwick,yes,KPVD,PVD,PVD,https://flyri.com/,https://en.wikipedia.org/wiki/T._F._Green_Airport,
3796,KPWM,large_airport,Portland International Jetport,43.646198,-70.309303,76,NA,US,US-ME,Portland,yes,KPWM,PWM,PWM,https://portlandjetport.org/,https://en.wikipedia.org/wiki/Portland_International_Jetport,
20900,KPYM,small_airport,Plymouth Municipal Airport,41.909,-70.728798,148,NA,US,US-MA,Plymouth,no,KPYM,PYM,PYM,,https://en.wikipedia.org/wiki/Plymouth_Municipal_Airport_(Massachusetts),
20935,KRKD,medium_airport,Knox County Regional Airport,44.060101,-69.099197,56,NA,US,US-ME,Rockland,yes,KRKD,RKD,RKD,,https://en.wikipedia.org/wiki/Knox_County_Regional_Airport,
3859,KRUT,medium_airport,Rutland - Southern Vermont Regional Airport,43.5294,-72.9496,787,NA,US,US-VT,Rutland,yes,KRUT,RUT,RUT,,https://en.wikipedia.org/wiki/Rutland_State_Airport,
21057,KSFM,small_airport,Sanford Seacoast Regional Airport,43.39390182,-70.70800018,244,NA,US,US-ME,Sanford,no,KSFM,SFM,SFM,http://www.sanfordmaine.org/index.asp?Type=B_BASIC&SEC={DEE316C2-D149-450A-922E-9B2B686815B4},https://en.wikipedia.org/wiki/Sanford_Regional_Airport,Sanford NAAF
21060,KSFZ,small_airport,North Central State Airport,41.92079926,-71.49140167,441,NA,US,US-RI,Pawtucket,no,KSFZ,SFZ,SFZ,,https://en.wikipedia.org/wiki/North_Central_State_Airport,
21090,KSNC,small_airport,Chester Airport,41.384177,-72.506011,416,NA,US,US-CT,Chester,no,KSNC,,SNC,,https://en.wikipedia.org/wiki/Chester_Airport,3B9
21177,KTAN,small_airport,Taunton Municipal King Field,41.874401,-71.016602,43,NA,US,US-MA,Taunton,no,KTAN,,TAN,,https://en.wikipedia.org/wiki/Taunton_Municipal_Airport,
21305,KUUU,small_airport,Newport State Airport,41.532398,-71.281502,172,NA,US,US-RI,Newport,yes,KUUU,NPT,UUU,,https://en.wikipedia.org/wiki/Newport_State_Airport_(Rhode_Island),2B4
21336,KVSF,small_airport,Hartness State Airport,43.343601,-72.517303,577,NA,US,US-VT,North Springfield,no,KVSF,VSF,VSF,,https://en.wikipedia.org/wiki/Hartness_State_Airport,Springfield
21382,KWST,medium_airport,Westerly State Airport,41.349602,-71.803398,81,NA,US,US-RI,Westerly,yes,KWST,WST,WST,,https://en.wikipedia.org/wiki/Westerly_State_Airport,
21385,KWVL,small_airport,Waterville Robert Lafleur Airport,44.53319931,-69.67549896,333,NA,US,US-ME,Waterville,no,KWVL,WVL,WVL,,https://en.wikipedia.org/wiki/Waterville_Robert_LaFleur_Airport,
21735,M00,seaplane_base,Augusta Seaplane Base,44.267601013183594,-69.78170013,23,NA,US,US-ME,Augusta,no,M00,,M00,,,
21745,M57,seaplane_base,Rangeley Lake Seaplane Base,44.9533,-70.663101,1518,NA,US,US-ME,Rangeley,no,M57,,M57,,https://en.wikipedia.org/wiki/Rangeley_Lake_Seaplane_Base,
330494,MA01,heliport,Gillette Stadium Heliport,42.088661,-71.263289,271,NA,US,US-MA,Foxborough,no,MA01,,MA01,,,
334333,MA02,heliport,MSP GHQ Heliport,42.296594,-71.415831,203,NA,US,US-MA,Framingham,no,MA02,,MA02,,,
21752,MA07,small_airport,Friends Ultralightport,41.56760025024414,-71.11920166,131,NA,US,US-MA,Westport,no,MA07,,MA07,,,
345683,MA09,heliport,Mojarr Heliport,42.050324,-71.890213,458,NA,US,US-MA,Dudley,no,MA09,,MA09,,,
21753,MA10,heliport,Chambers Heliport,42.378163,-71.088552,60,NA,US,US-MA,Somerville,no,MA10,,MA10,,,
324378,MA11,heliport,Dog Fish Bar Heliport,41.354222,-70.804756,8,NA,US,US-MA,Aquinnah,no,MA11,,MA11,,,
21754,MA12,closed,Marston Mills Seaplane Base,41.668999,-70.417503,44,NA,US,US-MA,Marstons Mills,no,,,,,,MA12
21755,MA13,heliport,Nugent Heliport,42.627899169921875,-70.63780212,100,NA,US,US-MA,Gloucester,no,MA13,,MA13,,,
21756,MA14,heliport,Wheeler's Point Heliport,42.6393013,-70.68029785,35,NA,US,US-MA,Gloucester,no,MA14,,MA14,,,
21757,MA15,heliport,Pond Road Heliport,42.62839889526367,-70.6434021,50,NA,US,US-MA,Gloucester,no,MA15,,MA15,,,
21758,MA16,small_airport,Marshall's Airport,42.363399505615234,-71.82170105,630,NA,US,US-MA,Holden,no,MA16,,MA16,,,
21759,MA17,closed,Avco/Lowell Heliport,42.615398,-71.3209,131,NA,US,US-MA,Lowell,no,,,,,,MA17
21760,MA18,small_airport,Cmelak Field,42.07910156,-73.30719757,980,NA,US,US-MA,Sheffield,no,MA18,,MA18,,,
21761,MA19,closed,Berlin Lndg Area,42.367595,-71.641701,270,NA,US,US-MA,Berlin,no,,,,,,MA19
21762,MA2,closed,Merrimack Valley Seaplane Base,42.7001,-71.216202,50,NA,US,US-MA,Methuen,no,,,,,https://en.wikipedia.org/wiki/Merrimack_Valley_Seaplane_Base,MA2
21763,MA20,heliport,Beverly Hospital Heliport,42.566200256347656,-70.87750244,84,NA,US,US-MA,Beverly,no,MA20,,MA20,,,
21764,MA21,heliport,Baybank Heliport,42.48120117,-71.20760345,150,NA,US,US-MA,Burlington,no,MA21,,MA21,,,
21765,MA22,heliport,The Beat Heliport,42.315128,-71.049264,55,NA,US,US-MA,Boston,no,MA22,,MA22,,,Boston Globe Heliport
21766,MA23,heliport,North Bay Heliport,41.62730026245117,-70.39969635,10,NA,US,US-MA,Osterville,no,MA23,,MA23,,,
21767,MA24,closed,Museum of Science Heliport,42.367595,-71.071702,66,NA,US,US-MA,Boston,no,,,,,,MA24
21768,MA25,seaplane_base,Long Pond Seaplane Base,41.73210144042969,-70.06109619,31,NA,US,US-MA,Brewster,no,MA25,,MA25,,,
21769,MA26,balloonport,Balloon Port At Dingley Dell Balloonport,42.120399475097656,-72.2562027,465,NA,US,US-MA,Brimfield,no,MA26,,MA26,,,
21770,MA27,heliport,Goddard Hosp Heliport,42.10039902,-71.08200073,200,NA,US,US-MA,Brockton,no,MA27,,MA27,,,
21771,MA28,heliport,Congamond Lake Heliport,42.03340148925781,-72.75980377,225,NA,US,US-MA,Southwick,no,MA28,,MA28,,,
21772,MA29,heliport,Camp Edwards Heliport,41.671501,-70.564796,135,NA,US,US-MA,Bourne,no,MA29,,MA29,,https://en.wikipedia.org/wiki/Camp_Edwards_Heliport,
21773,MA30,small_airport,Dresser Hill Airport,42.10217,-71.969118,810,NA,US,US-MA,Charlton,no,MA30,,MA30,,,
21774,MA31,heliport,Charlton Memorial Hospital Heliport,41.709775,-71.14683,240,NA,US,US-MA,Fall River,no,MA31,,MA31,,,
21775,MA32,heliport,Atlantic Trade Heliport,42.261199951171875,-71.76950073,570,NA,US,US-MA,Worcester,no,MA32,,MA32,,,
21776,MA33,heliport,Sagamore Hill Heliport,42.64189910888672,-70.82679749,200,NA,US,US-MA,Ipswich,no,MA33,,MA33,,,
21777,MA34,heliport,Moore Dogs Heliport,41.92539978027344,-70.80339813,110,NA,US,US-MA,Carver,no,MA34,,MA34,,,
21778,MA35,heliport,Hat Factory Heliport,42.83509826660156,-70.93109894,10,NA,US,US-MA,Amesbury,no,MA35,,MA35,,,
21779,MA36,small_airport,Snow Airport,42.666500091552734,-70.85299683,61,NA,US,US-MA,Ipswich,no,MA36,,MA36,,,
21780,MA37,heliport,Falmouth Hospital Heliport,41.565101623535156,-70.62449646,105,NA,US,US-MA,Falmouth,no,MA37,,MA37,,,
21781,MA38,heliport,Fitchburg Paper Company Heliport,42.57979965209961,-71.8286972,525,NA,US,US-MA,Fitchburg,no,MA38,,MA38,,,
21782,MA39,heliport,Brigham & Women's Hospital Heliport,42.336382,-71.106809,200,NA,US,US-MA,Boston,no,MA39,,MA39,,,
21783,MA40,seaplane_base,Diesel Dogs Seaplane Base,42.543399810791016,-71.96839905,325,NA,US,US-MA,Gardner,no,MA40,,MA40,,,
21784,MA41,heliport,Princess Lane Heliport,42.22439956665039,-71.55970001,135,NA,US,US-MA,Hopkinton,no,MA41,,MA41,,,
21785,MA42,heliport,US Coast Guard Gloucester Heliport,42.6101,-70.660004,10,NA,US,US-MA,Gloucester,no,MA42,,MA42,,,
21786,MA43,small_airport,Morehaven Airport,42.072173,-72.899963,1120,NA,US,US-MA,Granville,no,MA43,,MA43,,,
21787,MA44,small_airport,Trade Wind Airport,41.441799,-70.570297,43,NA,US,US-MA,Oak Bluffs,no,MA44,,MA44,,https://en.wikipedia.org/wiki/Trade_Wind_Airport,
21788,MA45,heliport,Simmons Heliport,42.125143,-70.843835,90,NA,US,US-MA,Hanover,no,MA45,,MA45,,,
21789,MA46,heliport,Army National Guard Heliport,42.130699157714844,-71.48419952,300,NA,US,US-MA,Milford,no,MA46,,MA46,,,
21790,MA47,heliport,Chicopee Heliport,42.18259811401367,-72.56150055,245,NA,US,US-MA,Chicopee,no,MA47,,MA47,,,
21791,MA48,heliport,Raytheon Heliport,42.43065083,-71.25255639,130,NA,US,US-MA,Lexington,no,MA48,,MA48,,,
21792,MA49,heliport,Metro-Swift Heliport,42.54119873046875,-70.92759705,40,NA,US,US-MA,Peabody,no,MA49,,MA49,,,
21793,MA50,heliport,Compaq Marlboro Heliport,42.32619857788086,-71.57620239,430,NA,US,US-MA,Marlboro,no,MA50,,MA50,,,
21794,MA51,heliport,Richie's Heliport,41.63819885253906,-71.03890228,104,NA,US,US-MA,North Dartmouth,no,MA51,,MA51,,,
21795,MA52,small_airport,Sids Airport,42.43817138671875,-71.47024536,220,NA,US,US-MA,Maynard,no,MA52,,MA52,,,
21796,MA53,small_airport,Ware Airport,42.2820015,-72.21479797,483,NA,US,US-MA,Ware,no,MA53,UWA,MA53,,https://en.wikipedia.org/wiki/Ware_Airport,
21797,MA54,heliport,B-Town Heliport,42.30009841918945,-72.42620087,320,NA,US,US-MA,Belchertown,no,MA54,,MA54,,,
21798,MA55,small_airport,Muskeget Island Airport,41.334801,-70.2995,90,NA,US,US-MA,Muskeget Island,no,MA55,,MA55,,https://en.wikipedia.org/wiki/Muskeget_Island_Airport,
21799,MA56,heliport,Boston Scientific Natick Heliport,42.30500030517578,-71.37529755,167,NA,US,US-MA,Natick,no,MA56,,MA56,,,
21800,MA57,heliport,Us Property & Fiscal Office Heliport,42.28340148925781,-71.36620331,200,NA,US,US-MA,Natick,no,MA57,,MA57,,,
21801,MA58,heliport,Natick Army Laboratories Heliport,42.2865244,-71.36068583,143,NA,US,US-MA,Natick,no,MA58,,MA58,,,
21802,MA59,closed,Veracka Heliport,42.045104,-71.009202,80,NA,US,US-MA,Brockton,no,,,,,,MA59
21803,MA6,seaplane_base,Monponsett Pond Seaplane Base,42.00979995727539,-70.8431015,52,NA,US,US-MA,Halifax,no,MA6,,MA6,,https://en.wikipedia.org/wiki/Monponsett_Pond_Seaplane_Base,
21804,MA60,heliport,St Luke's Hospital Heliport,41.89400100708008,-70.91500092,140,NA,US,US-MA,Middleborough,no,MA60,,MA60,,,
21805,MA62,closed,Sampson Pond Heliport,41.860401,-70.751701,167,NA,US,US-MA,Carver,no,,,,,,MA62
21806,MA63,small_airport,Sherman-Private Airport,42.07400131225586,-70.79810333,34,NA,US,US-MA,Pembroke,no,MA63,,MA63,,,
21807,MA64,small_airport,Pheasant Field,42.075401306152344,-70.81529999,40,NA,US,US-MA,Pembroke,no,MA64,,MA64,,,
21808,MA65,seaplane_base,Island Air Service Seaplane Base,41.77180099487305,-70.87310028,53,NA,US,US-MA,Rochester,no,MA65,,MA65,,,
21809,MA66,closed,Wolomolopoag STOLport,42.100701,-71.207802,276,NA,US,US-MA,Sharon,no,,,,,,MA66
21810,MA67,heliport,Tgp Heliport,42.03450012207031,-72.63200378,120,NA,US,US-MA,Agawam,no,MA67,,MA67,,,
21811,MA68,heliport,Massachusetts Mutual Life Insurance Co Heliport,42.116209,-72.542545,206,NA,US,US-MA,Springfield,no,MA68,,MA68,,,
21812,MA69,heliport,New England Memorial Hospital Heliport,42.451499938964844,-71.08699799,219,NA,US,US-MA,Stoneham,no,MA69,,MA69,,,
21813,MA70,small_airport,Sudbury Airport,42.35089874267578,-71.42980194,135,NA,US,US-MA,Sudbury,no,MA70,,MA70,,,
21814,MA71,heliport,Davna Corp Heliport,42.15510177612305,-71.38619995,145,NA,US,US-MA,Millis,no,MA71,,MA71,,,
21815,MA72,small_airport,Tuckernuck Airport,41.297501,-70.260399,23,NA,US,US-MA,Tuckernuck Island,no,MA72,,MA72,,https://en.wikipedia.org/wiki/Tuckernuck_Airport,
21816,MA73,closed,Oxbow Corporation Heliport,42.218201,-71.297302,270,NA,US,US-MA,Dover,no,,,,,,MA73
21817,MA74,seaplane_base,Larson's Seaplane Base,42.69150161743164,-71.41809845,90,NA,US,US-MA,Tyngsboro,no,MA74,,MA74,,,
21818,MA75,small_airport,Sky Glen Airport,42.04090118408203,-71.61620331,260,NA,US,US-MA,Uxbridge,no,MA75,,MA75,,,
21819,MA76,heliport,Waltham Weston Hospital & Medical Center Heliport,42.36759948730469,-71.24810028,75,NA,US,US-MA,Waltham,no,MA76,,MA76,,,
21820,MA77,small_airport,Blueberry Hill Airport,42.375099182128906,-73.14759827,2000,NA,US,US-MA,Washington,no,MA77,,MA77,,,
21821,MA78,seaplane_base,Russell Mill Pond Seaplane Base,41.91790008544922,-70.62779999,55,NA,US,US-MA,Plymouth,no,MA78,,MA78,,,
21822,MA79,heliport,Digital Heliport,42.175899505615234,-72.72480011,260,NA,US,US-MA,Westfield,no,MA79,,MA79,,,
21823,MA80,small_airport,Mundale Airport,42.121431,-72.812046,280,NA,US,US-MA,Westfield,no,MA80,,MA80,,,
21824,MA81,heliport,Digital Heliport,42.55509948730469,-71.92559814,1100,NA,US,US-MA,Westminster,no,MA81,,MA81,,,
21825,MA82,seaplane_base,Westport Seaplane Base,41.64929962158203,-71.12590027,131,NA,US,US-MA,Westport,no,MA82,,MA82,,,
21826,MA83,heliport,Hubbard Regional Hospital Heliport,42.02759933,-71.85030365,510,NA,US,US-MA,Webster,no,MA83,,MA83,,,
21827,MA84,heliport,Sprague Nr 1 Heliport,42.72090148925781,-73.21340179,665,NA,US,US-MA,Williamstown,no,MA84,,MA84,,,
21828,MA85,heliport,Sprague Nr 2 Heliport,42.71950149536133,-73.21340179,665,NA,US,US-MA,Williamstown,no,MA85,,MA85,,,
21829,MA86,small_airport,Kendalls Lndg Area Airport,42.50559998,-73.05979919,2102,NA,US,US-MA,Windsor,no,MA86,,MA86,,,
21830,MA87,closed,Horseneck Seaplane Base,41.509801,-71.038101,0,NA,US,US-MA,Westport,no,,,,,,MA87
21831,MA88,small_airport,Albert Farms Airport,42.390098571777344,-72.93090057,1425,NA,US,US-MA,Worthington,no,MA88,,MA88,,,
21832,MA89,small_airport,B&B Farm Airport,42.346099853515625,-72.10389709,980,NA,US,US-MA,New Braintree,no,MA89,,MA89,,,
21833,MA90,heliport,Host Hotel Heliport,42.48120487,-71.54731393,280,NA,US,US-MA,Boxborough,no,MA90,,MA90,,,
21834,MA91,heliport,Compaq Parker Street Heliport,42.418399810791016,-71.44730377,178,NA,US,US-MA,Maynard,no,MA91,,MA91,,,
21835,MA92,heliport,Prospect Hill Heliport,42.39789962768555,-71.25779724,270,NA,US,US-MA,Waltham,no,MA92,,MA92,,,
21836,MA93,heliport,Bay Bank Ii Heliport,42.48120117,-71.20950317,148,NA,US,US-MA,Burlington,no,MA93,,MA93,,,
21837,MA94,heliport,Parker Heliport,42.27539825439453,-71.79869843,520,NA,US,US-MA,Worcester,no,MA94,,MA94,,,
21838,MA95,heliport,Bear Hole Heliport,42.12649917602539,-72.66950226,235,NA,US,US-MA,West Springfield,no,MA95,,MA95,,,
21839,MA96,closed,Rent-A-Tool Heliport,42.427898,-70.984497,,NA,US,US-MA,Revere,no,,,,,,"MA96, MA96, MA96"
21840,MA97,small_airport,Waters Airport,42.125099182128906,-71.7397995,700,NA,US,US-MA,Sutton,no,MA97,,MA97,,,
21841,MA98,heliport,Anna Jaques Hospital Heliport,42.81449890136719,-70.89089966,100,NA,US,US-MA,Newburyport,no,MA98,,MA98,,,
21842,MA99,heliport,Princess House Heliport,41.86119842529297,-71.10780334,12,NA,US,US-MA,Taunton,no,MA99,,MA99,,,
45446,ME00,small_airport,Fort Fairfield Municipal Airport,46.764354,-67.847421,471,NA,US,US-ME,Fort Fairfield,no,ME00,,ME00,,,
21937,ME01,seaplane_base,Crescent Lake Seaplane Base,43.957000732421875,-70.46260071,278,NA,US,US-ME,East Raymond,no,ME01,,ME01,,,
21938,ME02,heliport,Northern Light Eastern Maine Medical Center Heliport,44.808275,-68.752233,60,NA,US,US-ME,Bangor,no,ME02,,ME02,,,
21939,ME03,small_airport,Webber Jones Airport,45.33620071411133,-69.05090332,400,NA,US,US-ME,Brownville,no,ME03,,ME03,,,
21940,ME04,seaplane_base,Ilco Landing Area Seaplane Base,46.609500885009766,-69.5306015,1031,NA,US,US-ME,Clayton Lake,no,ME04,,ME04,,,
21941,ME05,small_airport,Allen St Peter Memorial Airport,46.75,-68.47119904,800,NA,US,US-ME,Portage,no,ME05,,ME05,,,
21942,ME06,small_airport,Flying Ed Airport,45.02790069580078,-67.30940247,440,NA,US,US-ME,Charlotte,no,ME06,,ME06,,,
45444,ME07,seaplane_base,Acadian Seaplane Base,44.39805,-68.219583,0,NA,US,US-ME,Bar Harbor,no,ME07,,ME07,,,
21943,ME08,small_airport,Gadabout Gaddis Airport,45.040806,-69.869629,342,NA,US,US-ME,Bingham,no,ME08,,ME08,,,
21944,ME09,seaplane_base,Panther Pond Seaplane Base,43.93009948730469,-70.45310211,277,NA,US,US-ME,Raymond,no,ME09,,ME09,,,
21945,ME11,seaplane_base,Cooper Seaplane Base,44.34230041503906,-70.28780365,373,NA,US,US-ME,Hartford,no,ME11,,ME11,,,
21946,ME12,seaplane_base,Brettuns Pond Seaplane Base,44.38779830932617,-70.25450134,400,NA,US,US-ME,Livermore,no,ME12,,ME12,,,
21947,ME14,small_airport,Bald Mountain Airport,44.23059844970703,-69.12310028,570,NA,US,US-ME,Camden,no,ME14,,ME14,,,
21948,ME16,small_airport,Loring International Airport,46.950401,-67.885902,746,NA,US,US-ME,Limestone,no,ME16,LIZ,ME16,,https://en.wikipedia.org/wiki/Loring_International_Airport,Loring AFB
21949,ME17,small_airport,Thomas Airport,44.66019821166992,-70.58799744,670,NA,US,US-ME,Roxbury,no,ME17,,ME17,,,
21950,ME18,heliport,Chesuncook Forestry District Heliport,45.883399963378906,-69.23280334,960,NA,US,US-ME,Chesuncook,no,ME18,,ME18,,,
21951,ME19,small_airport,Clayton Lake Strip,46.617094,-69.523244,1150,NA,US,US-ME,Clayton Lake,no,ME19,,ME19,,,
21952,ME2,small_airport,Cutler Regional Airport,44.679901,-67.264397,55,NA,US,US-ME,Cutler,no,,,ME2,,https://en.wikipedia.org/wiki/Cutler_Regional_Airport,"ME15, Ramsdell Field"
21953,ME20,small_airport,Bob-Mar Airport,44.59920120239258,-69.62390137,310,NA,US,US-ME,Fairfield,no,ME20,,ME20,,,
324556,ME21,heliport,Chebeague Island Heliport,43.729064,-70.126983,130,NA,US,US-ME,Chebeague Island,no,ME21,,ME21,,,
21954,ME22,small_airport,Avery Field,45.671201,-69.807225,1070,NA,US,US-ME,Rockwood,no,ME22,,ME22,,,
349865,ME23,heliport,Franklin Memorial Hospital Heliport,44.626546,-70.162082,423,NA,US,US-ME,Farmington,no,ME23,,ME23,,,
21955,ME24,heliport,Ben Hur Heliport,44.28329849243164,-69.23919678,240,NA,US,US-ME,Appleton,no,ME24,,ME24,,,
21956,ME25,small_airport,Sunrise Farms Airport,47.166507,-68.392843,640,NA,US,US-ME,Sinclair,no,ME25,,ME25,,,La Change Landing Field
21957,ME26,closed,Super Cub Field,43.668098,-70.363098,85,NA,US,US-ME,Westbrook,no,,,,,,ME26
21958,ME27,seaplane_base,Double A Seaplane Base,44.900901794433594,-68.8022995,115,NA,US,US-ME,Glenburn,no,ME27,,ME27,,,
21959,ME28,seaplane_base,Forest Lake Seaplane Base,43.823699951171875,-70.33010101,274,NA,US,US-ME,Cumberland,no,ME28,,ME28,,,
21960,ME3,seaplane_base,Bradford Camps Seaplane Base,46.39580154418945,-69.00499725,815,NA,US,US-ME,Ashland,no,ME3,,ME3,,,
21961,ME30,seaplane_base,Greenville Forestry Seaplane Base,45.466800689697266,-69.59950256,1028,NA,US,US-ME,Greenville,no,ME30,,ME30,,,
21962,ME32,small_airport,Ruby Field,45.089204,-69.260635,500,NA,US,US-ME,Sangerville,no,ME32,,ME32,,,Morrel Field
21963,ME33,small_airport,Farr Field,43.77870178222656,-70.01309967,70,NA,US,US-ME,Harpswell,no,ME33,,ME33,,,
21964,ME34,small_airport,Robinson Ridge Field,44.175924,-69.428616,250,NA,US,US-ME,Jefferson,no,ME34,,ME34,,,
21965,ME35,small_airport,Terra B & B Airport,44.93149948120117,-69.00730133,382,NA,US,US-ME,Levant,no,ME35,,ME35,,,
21966,ME36,closed,Mount Vernon Airport,44.509201,-69.952599,478,NA,US,US-ME,Mount Vernon,no,,,,,,ME36
506073,ME37,heliport,Bridgton Hospital Heliport,44.046158,-70.713053,560,NA,US,US-ME,Bridgton,no,ME37,,ME37,,,
21967,ME38,small_airport,Mars Hill Airport,46.527801513671875,-67.87449646,432,NA,US,US-ME,Mars Hill,no,ME38,,ME38,,,
21968,ME39,small_airport,Rocky Ridge Airport,44.234829,-70.132255,480,NA,US,US-ME,Greene,no,ME39,,ME39,,,
21969,ME41,small_airport,Witherspoons Airport,44.151574,-68.876306,80,NA,US,US-ME,North Haven,yes,ME41,,ME41,,,
21970,ME42,heliport,Mid Coast Hospital Heliport,43.905102,-69.891197,29,NA,US,US-ME,Brunswick,no,ME42,,ME42,,,
345542,ME43,heliport,Northern Light Mayo Hospital Heliport,45.188582,-69.2368,370,NA,US,US-ME,Dover-Foxcroft,no,ME43,,ME43,,,
21971,ME44,closed,Cummings Airport,44.289002,-70.446198,960,NA,US,US-ME,Paris Hill,no,,,,,,ME44
21972,ME45,small_airport,Goosefair Airport,43.405601501464844,-70.43229675,40,NA,US,US-ME,Kennebunkport,no,ME45,,ME45,,,
21973,ME46,small_airport,Back Acres Airport,43.41230010986328,-70.44670105,60,NA,US,US-ME,Kennebunkport,no,ME46,,ME46,,,
21974,ME47,small_airport,Payne Field,44.85449981689453,-69.45639801,350,NA,US,US-ME,Hartland,no,ME47,,ME47,,,
506070,ME48,heliport,Northern Maine Medical Center Heliport,47.264881,-68.593197,600,NA,US,US-ME,Fort Kent,no,ME48,,ME48,,,
345491,ME49,heliport,C A Dean Memorial Hospital Heliport,45.458369,-69.611189,1085,NA,US,US-ME,Greenville,no,ME49,,ME49,,,
21975,ME5,small_airport,Banks Airport,44.165401458740234,-68.42780304,100,NA,US,US-ME,Swans Island,no,ME5,,ME5,,,
21976,ME50,closed,Cross Lake Seaplane Base,47.133901,-68.334503,578,NA,US,US-ME,Sinclair,no,,,,,,ME50
21977,ME51,seaplane_base,Douglass Seaplane Base,43.73699951171875,-70.61060333,270,NA,US,US-ME,Standish,no,ME51,,ME51,,,
346003,ME52,heliport,Down East Community Hospital Heliport,44.713451,-67.475908,150,NA,US,US-ME,Machias,no,ME52,,ME52,,,
21978,ME55,small_airport,Vinalhaven Airport,44.073203,-68.819261,72,NA,US,US-ME,Vinalhaven,yes,ME55,,ME55,,,
21979,ME56,closed,Kimberly Airport,44.069199,-69.305298,255,NA,US,US-ME,Waldoboro,no,,,,,,"ME56, ME56, ME56"
21980,ME57,seaplane_base,Bauneg Beg Seaplane Base,43.35900116,-70.73529816,305,NA,US,US-ME,North Berwick,no,ME57,,ME57,,,
21981,ME58,heliport,Milbridge Heliport,44.53900146484375,-67.88420105,56,NA,US,US-ME,Milbridge,no,ME58,,ME58,,,
21982,ME59,heliport,Maine Helicopters Heliport,44.20309829711914,-69.60749817,150,NA,US,US-ME,North Whitefield,no,ME59,,ME59,,,
21983,ME6,small_airport,Wales Airport,44.1745,-70.018898,210,NA,US,US-ME,Wales,no,ME6,,ME6,,https://en.wikipedia.org/wiki/Wales_Airport_(Maine),
21984,ME60,small_airport,Sunny Hill Airport,44.46839904785156,-69.81780243,390,NA,US,US-ME,Belgrade,no,ME60,,ME60,,,
21985,ME61,closed,Salmon Falls Airport,43.293716,-70.901277,190,NA,US,US-ME,Berwick,no,,,,,,"ME61, ME61, ME61"
21986,ME62,small_airport,Thompson Memorial Field,44.809386,-69.470389,390,NA,US,US-ME,Pittsfield,no,ME62,,ME62,,,Grignons Private Landing Area
329071,ME63,heliport,Rumford Community Hospital Heliport,44.5513,-70.555475,667,NA,US,US-ME,Rumford,no,ME63,,ME63,,,
21987,ME64,small_airport,Skydive Lebanon Airport,43.375,-70.92919922,365,NA,US,US-ME,West Lebanon,no,ME64,,ME64,,,
21988,ME65,heliport,Miara Heliport,43.85850143432617,-69.88420105,10,NA,US,US-ME,West Bath,no,ME65,,ME65,,,
21989,ME66,small_airport,Scottow Bog Flightpark Ultralightport,43.61259841918945,-70.3572998,30,NA,US,US-ME,Scarborough,no,ME66,,ME66,,,
21990,ME67,small_airport,Morrill Airpark,47.127498626708984,-67.96589661,860,NA,US,US-ME,Van Buren,no,ME67,,ME67,,,
21991,ME68,small_airport,Newport Sky Park Airport,44.820098876953125,-69.23840332,300,NA,US,US-ME,Newport,no,ME68,,ME68,,,
21992,ME69,small_airport,Cliffords Airport,44.069000244140625,-70.0644989,280,NA,US,US-ME,Sabattus,no,ME69,,ME69,,,
21993,ME70,small_airport,Greenfield Hill Airport,45.037601470947266,-69.47920227,672,NA,US,US-ME,Cambridge,no,ME70,,ME70,,,
21994,ME72,heliport,Seboomook Forestry District Headquarters Heliport,45.883399963378906,-69.98280334,1081,NA,US,US-ME,Pittston Farm,no,ME72,,ME72,,,
21995,ME74,small_airport,Miller's Field,44.74950027,-68.98139954,160,NA,US,US-ME,Newburgh,no,ME74,,ME74,,,
21996,ME75,small_airport,Margerison Airport,43.953999,-70.141403,220,NA,US,US-ME,Durham,no,ME75,,ME75,,,Lisbon Falls
21997,ME76,heliport,Penobscot Bay Medical Center Heliport,44.143133,-69.085411,60,NA,US,US-ME,Rockland,no,ME76,,ME76,,,
331588,ME77,heliport,Cranberry Isles Heliport,44.251336,-68.268619,50,NA,US,US-ME,Cranberry Isles,no,ME77,,ME77,,,
331697,ME78,heliport,Monhegan Island Heliport,43.764333,-69.314527,130,NA,US,US-ME,Monhegan Island,no,ME78,,ME78,,,
21998,ME79,small_airport,Two Falls Airport,45.305599212646484,-69.34670258,366,NA,US,US-ME,Willimantic,no,ME79,,ME79,,,
21999,ME80,seaplane_base,Dry Pond Seaplane Base,43.93389892578125,-70.35639954,309,NA,US,US-ME,Gray,no,ME80,,ME80,,,
322570,ME81,heliport,4 Winds Heliport,43.758333,-69.321611,30,NA,US,US-ME,Manhegan,no,ME81,,ME81,,,
324644,ME83,seaplane_base,Pickerel Pond Seaplane Base,43.70118,-70.777361,340,NA,US,US-ME,Limerick,no,ME83,,ME83,,,
334209,ME84,seaplane_base,Perrys Landing Seaplane Base,44.758139,-70.850703,1450,NA,US,US-ME,Andover,no,ME84,,ME84,,,
22000,ME85,seaplane_base,Riverside Seaplane Base,45.183399,-69.235603,342,NA,US,US-ME,Dover-Foxcroft,no,ME85,,ME85,,,
22001,ME86,seaplane_base,Libby Camps Seaplane Base,46.30830001831055,-68.84359741,754,NA,US,US-ME,Ashland,no,ME86,,ME86,,,
22002,ME87,heliport,Southern Maine Health Care/Sanford Heliport,43.448713,-70.768594,375,NA,US,US-ME,Sanford,no,ME87,,ME87,,,Goodall Hospital
22003,ME88,small_airport,Morrison's Airport,44.99169922,-67.07440186,200,NA,US,US-ME,Perry,no,ME88,,ME88,,,
22004,ME89,small_airport,Buzzy's Field,43.608792,-70.972149,650,NA,US,US-ME,Acton,no,ME89,,ME89,,,
22005,ME90,seaplane_base,Little Ossipee Lake Seaplane Base,43.61309814453125,-70.6964035,311,NA,US,US-ME,Waterboro Center,no,ME90,,ME90,,,
22006,ME91,small_airport,Webster Field,43.67509841918945,-70.49559784,200,NA,US,US-ME,Gorham,no,ME91,,ME91,,,
22007,ME92,small_airport,Hilltop Airport,44.516700744628906,-70.22229767,600,NA,US,US-ME,Jay,no,ME92,,ME92,,,
334346,ME93,heliport,Beaulieu Heliport,43.538494,-70.403879,56,NA,US,US-ME,Old Orchard Beach,no,ME93,,ME93,,,
22008,ME94,closed,Clark Field,44.216702,-69.291199,54,NA,US,US-ME,Union,no,,,,,,ME94
22009,ME95,heliport,Central Maine Medical Center Air Ambulance Landing Site Heliport,44.103232,-70.215096,241,NA,US,US-ME,Lewiston,no,ME95,,ME95,,,
22010,ME96,small_airport,Clark Field,43.73360061645508,-70.48639679,250,NA,US,US-ME,Gorham,no,ME96,,ME96,,,
331707,ME98,heliport,Long Island Heliport,43.685853,-70.167286,65,NA,US,US-ME,Long Island,no,ME98,,ME98,,,
22659,N04,closed,Griswold Airport,41.271198,-72.549698,15,NA,US,US-CT,Madison,no,,,,,https://en.wikipedia.org/wiki/Griswold_Airport,"N04, MPE"
22663,N09,heliport,Northfield Heliport,41.72370147705078,-73.11569977,903,NA,US,US-CT,Thomaston,no,N09,,N09,,,
22675,N41,small_airport,Waterbury Airport,41.632381,-73.048182,850,NA,US,US-CT,Waterbury,no,KN41,,N41,,https://en.wikipedia.org/wiki/Waterbury_Airport_(Connecticut),
321917,NH01,seaplane_base,Bellamy River Seaplane Base,43.1417917,-70.8462612,0,NA,US,US-NH,Dover,no,NH01,,NH01,,,
322129,NH02,heliport,Puzzo-Lakewood Heliport,43.482416,-71.2453056,700,NA,US,US-NH,Alton,no,NH02,,NH02,,,
324698,NH03,heliport,Granite Heliport,42.794167,-71.367778,217,NA,US,US-NH,Hudson,no,NH03,,NH03,,,
329017,NH04,heliport,Ciardelli Field Heliport,42.8057966,-71.618797,458,NA,US,US-NH,Milford,no,NH04,,NH04,,,
324606,NH05,heliport,Seacoast Helicopters West Heliport,42.899444,-71.646666,600,NA,US,US-NH,Mont Vernon,no,NH05,,NH05,,,
22971,NH06,heliport,Dynasty Farms Heliport,42.80339813232422,-71.18280029,295,NA,US,US-NH,Salem,no,NH06,,NH06,,,
22972,NH07,small_airport,Cooper Farm Airport,43.280399322509766,-71.45659637,485,NA,US,US-NH,Loudon,no,NH07,,NH07,,,
322644,NH08,heliport,Marbina Woods Heliport,44.693292,-71.575008,1429,NA,US,US-NH,North Stratford,no,NH08,,NH08,,,NHPAD Heliport
22973,NH09,heliport,Seabrook Station Heliport,42.89590072631836,-70.86119843,41,NA,US,US-NH,Seabrook,no,NH09,,NH09,,,
322809,NH10,heliport,Springfield Cove Heliport,43.560239,-71.194936,528,NA,US,US-NH,Wolfeboro,no,NH10,,NH10,,,
322802,NH11,heliport,Swain Hill Heliport,43.961,-71.8888333,1110,NA,US,US-NH,Warren,no,NH11,,NH11,,,
321939,NH12,seaplane_base,Evans Seaplane Base,43.038295,-71.468561,182,NA,US,US-NH,Manchester,no,NH12,,NH12,,,
22974,NH13,heliport,Concord Hospital Heliport,43.19729995727539,-71.56060028,400,NA,US,US-NH,Concord,no,NH13,,NH13,,,
323295,NH14,heliport,Parker International Heliport,42.929442,-71.860833,1065,NA,US,US-NH,Greenfield,no,NH14,,NH14,,,
22975,NH15,small_airport,Locke Lake Airport,43.38669967651367,-71.23339844,702,NA,US,US-NH,Barnstead,no,NH15,,NH15,,,
22976,NH16,small_airport,Brookline Airport,42.741798,-71.707603,415,NA,US,US-NH,Brookline,no,NH16,,NH16,,,
22977,NH17,small_airport,Zim Airport,42.72760009765625,-71.71759796,520,NA,US,US-NH,Mason,no,NH17,,NH17,,,
22978,NH18,small_airport,Chickville Airport,43.73339844,-71.15119934,560,NA,US,US-NH,Center Ossipee,no,NH18,,NH18,,,
22979,NH19,heliport,Air-Wood Heliport,43.54309844970703,-72.35230255,540,NA,US,US-NH,Plainfield,no,NH19,,NH19,,,
22980,NH20,small_airport,Ward Field,43.49229813,-71.64589691,440,NA,US,US-NH,Sanbornton,no,NH20,,NH20,,,
22981,NH21,heliport,Abbott Heliport,44.148101806640625,-71.16809845,1300,NA,US,US-NH,Jackson,no,NH21,,NH21,,,
22982,NH22,heliport,Lancaster Heliport,44.503700256347656,-71.56929779,860,NA,US,US-NH,Lancaster,no,NH22,,NH22,,,
322812,NH23,heliport,Cottage Hospital Heliport,44.135409,-72.024478,551,NA,US,US-NH,Woodsville,no,NH23,,NH23,,,
22983,NH24,heliport,Prescott Hill Heliport,43.54529953,-71.99610138,1460,NA,US,US-NH,Grafton,no,NH24,,NH24,,,
22984,NH25,closed,Flying H Skyport Airport,43.686699,-71.2892,620,NA,US,US-NH,Melvin Village,no,,,,,,NH25
22985,NH26,heliport,Dragonwings Heliport,42.96730041503906,-71.57279968,630,NA,US,US-NH,Bedford,no,NH26,,NH26,,,
346700,NH27,heliport,Huggins Hospital Heliport,43.582252,-71.201706,570,NA,US,US-NH,Wolfeboro,no,NH27,,NH27,,,
28131,NH28,heliport,Hillsboro Ford Heliport,43.11000061,-71.91729736,551,NA,US,US-NH,Hillsboro,no,NH28,,NH28,,,
22986,NH29,heliport,Hollander's Heliport,43.582000732421875,-72.20310211,1300,NA,US,US-NH,Plainfield,no,NH29,,NH29,,,
354676,NH30,seaplane_base,Avery Point Airport,43.675523,-71.402759,505,NA,US,US-NH,Moultonborough,no,NH30,,NH30,,,
22987,NH31,small_airport,Mountain View Field,43.65010070800781,-71.14949799,965,NA,US,US-NH,Wolfeboro,no,NH31,,NH31,,,
22988,NH32,heliport,Bentley Heliport,42.98149871826172,-70.91870117,66,NA,US,US-NH,Exeter,no,NH32,,NH32,,,
22989,NH33,heliport,Brigham Heliport,43.195899963378906,-71.47730255,360,NA,US,US-NH,Pembroke,no,NH33,,NH33,,,
22990,NH34,closed,Wharf Heliport,43.084,-70.761398,14,NA,US,US-NH,Portsmouth,no,,,,,,NH34
22991,NH35,heliport,Liberty Lane Heliport,42.950389,-70.85659,60,NA,US,US-NH,Hampton,no,NH35,,NH35,,,Fisher Scientific Heliport
324650,NH36,heliport,Weeks Medical Center Heliport,44.4865,-71.554,1009,NA,US,US-NH,Lancaster,no,NH36,,NH36,,,
22992,NH37,heliport,Southern Nh Medical Center Heliport,42.75579833984375,-71.46199799,96,NA,US,US-NH,Nashua,no,NH37,,NH37,,,
22993,NH38,small_airport,Leavitt Airport,43.972599029541016,-71.1697998,860,NA,US,US-NH,Albany,no,NH38,,NH38,,,
22994,NH39,small_airport,Frank D. Comerford Airport,43.03340148925781,-72.42980194,640,NA,US,US-NH,Walpole,no,NH39,,NH39,,,
22995,NH40,small_airport,Eagles Nest Airport,43.40459,-71.94878,998,NA,US,US-NH,New London,no,NH40,,NH40,,,
22996,NH41,heliport,Merrimack Heliport,42.81700134277344,-71.50530243,209,NA,US,US-NH,Merrimack,no,NH41,,NH41,,,
22997,NH42,heliport,C.S.S. Heliport,42.73680114746094,-71.48149872,212,NA,US,US-NH,Nashua,no,NH42,,NH42,,,
22998,NH43,small_airport,Murphy-Sherwood Park Airport,43.179501,-71.137001,200,NA,US,US-NH,West Nottingham,no,NH43,,NH43,,,
22999,NH44,heliport,Dean Kamen Heliport,42.91669845581055,-71.51210022,250,NA,US,US-NH,Bedford,no,NH44,,NH44,,,
23000,NH45,heliport,Foss Heliport,42.937599182128906,-70.84259796,20,NA,US,US-NH,Hampton,no,NH45,,NH45,,,
23001,NH46,heliport,Austin's Landing Heliport,42.979801177978516,-71.69560242,620,NA,US,US-NH,New Boston,no,NH46,,NH46,,,
324840,NH47,heliport,Monadnock Community Hospital Heliport,42.892515,-71.941116,806,NA,US,US-NH,Peterborough,no,NH47,,NH47,,,NH95
23002,NH48,closed,Springfield Point Heliport,43.557898,-71.191704,504,NA,US,US-NH,Wolfeboro,no,,,,,,NH48
23003,NH49,small_airport,Bradley Field,43.969262,-71.680758,650,NA,US,US-NH,Woodstock,no,NH49,,NH49,,,
23004,NH50,heliport,Gordon Brown Heliport,42.841800689697266,-71.15950012,330,NA,US,US-NH,Atkinson,no,NH50,,NH50,,,
23005,NH51,heliport,Wickson Heliport,44.15589904785156,-71.1568985,1650,NA,US,US-NH,Jackson,no,NH51,,NH51,,,
23006,NH52,heliport,Waste Heliport,43.205101013183594,-71.48419952,332,NA,US,US-NH,Concord,no,NH52,,NH52,,,
23007,NH53,heliport,Norden Systems Heliport,42.83089828491211,-71.5109024,200,NA,US,US-NH,Merrimack,no,NH53,,NH53,,,
322343,NH54,heliport,Parkland Medical Center Heliport,42.877169,-71.315345,274,NA,US,US-NH,Derry,no,NH54,,NH54,,,
23008,NH55,heliport,Chopper One Heliport,42.84700012207031,-71.21890259,240,NA,US,US-NH,Derry,no,NH55,,NH55,,,
23009,NH56,heliport,Wentworth-Douglass Heliport,43.21289825439453,-70.87339783,149,NA,US,US-NH,Dover,no,NH56,,NH56,,,
23010,NH57,heliport,Exeter Hospital Heliport,42.981998443603516,-70.936203,83,NA,US,US-NH,Exeter,no,NH57,,NH57,,,
23011,NH58,heliport,D.W. Heliport,43.41790008544922,-71.64479828,440,NA,US,US-NH,Franklin,no,NH58,,NH58,,,
23012,NH59,heliport,Speedway Heliport,43.365097,-71.459469,491,NA,US,US-NH,Loudon,no,NH59,,NH59,,,
23013,NH60,small_airport,Huff Memorial Airport,42.958877,-71.653126,840,NA,US,US-NH,New Boston,no,NH60,,NH60,,,
23014,NH61,small_airport,Heaton Airport,42.968101501464844,-71.18119812,188,NA,US,US-NH,Chester,no,NH61,,NH61,,,
23015,NH62,closed,Millipore Heliport,42.798698,-71.982903,1132,NA,US,US-NH,Jaffrey,no,,,,,,NH62
23016,NH63,heliport,Weston Street Heliport,42.866798400899995,-71.21800232,224,NA,US,US-NH,Derry,no,NH63,,NH63,,,
23017,NH64,closed,Pow-Wow Seaplane Base,42.9112,-71.033391,115,NA,US,US-NH,Kingston,no,,,,,,NH64
23018,NH65,heliport,Dean Kamen Ii Heliport,42.922298431396484,-71.50839996,500,NA,US,US-NH,Bedford,no,NH65,,NH65,,,
23019,NH66,closed,Temple Heliport,42.789799,-71.834503,920,NA,US,US-NH,Temple,no,,,,,,NH66
23020,NH67,small_airport,Winterwood Airport,42.97840118408203,-71.0094986,130,NA,US,US-NH,Brentwood,no,NH67,,NH67,,,
23021,NH68,seaplane_base,Merrymeeting Lake Seaplane Base,43.47999954223633,-71.17019653,647,NA,US,US-NH,New Durham,no,NH68,,NH68,,,
23022,NH69,small_airport,Windsock Village Airport,43.825303,-71.183368,460,NA,US,US-NH,West Ossipee,no,NH69,,NH69,,,
23023,NH70,heliport,Forbes Heliport,44.04529953,-71.15779877,540,NA,US,US-NH,North Conway,no,NH70,,NH70,,,
23024,NH71,closed,Loons Nest Seaplane Base,43.638214,-71.323212,504,NA,US,US-NH,Tuftonboro,no,,,,,,NH71
23025,NH73,heliport,Meader's Heliport,43.79290008544922,-71.1772995,420,NA,US,US-NH,Center Ossipee,no,NH73,,NH73,,,
23026,NH74,heliport,Crowley Heliport,43.34090042114258,-71.47090149,570,NA,US,US-NH,Loudon,no,NH74,,NH74,,,
23027,NH75,heliport,Psnh Heliport,43.14509963989258,-71.47530365,190,NA,US,US-NH,Bow,no,NH75,,NH75,,,
23028,NH76,small_airport,Mason Airfield,42.729000091552734,-71.78420258,740,NA,US,US-NH,Mason,no,NH76,,NH76,,,
23029,NH77,heliport,Smiling Jack Heliport,43.62536,-71.56541,730,NA,US,US-NH,Meredith,no,NH77,,NH77,,,
23030,NH78,small_airport,Steck Farm Airport,42.74720001220703,-71.36920166,460,NA,US,US-NH,Pelham,no,NH78,,NH78,,,
23031,NH79,heliport,Falcon Station Heliport,43.04059982299805,-71.12560272,160,NA,US,US-NH,West Epping,no,NH79,,NH79,,,
23032,NH80,heliport,Shanklin Heliport,42.825599670410156,-71.74169922,820,NA,US,US-NH,Wilton,no,NH80,,NH80,,,
23033,NH81,heliport,Franklin Regional Hospital Heliport,43.44839859008789,-71.64620209,480,NA,US,US-NH,Franklin,no,NH81,,NH81,,,
23034,NH82,heliport,Dartmouth Hitchcock Medical Center Heliport,43.67670059,-72.270401,730,NA,US,US-NH,Lebanon,no,NH82,,NH82,,,
23035,NH83,heliport,Chiefs Hut Heliport,43.109500885009766,-71.63839722,616,NA,US,US-NH,Dunbarton,no,NH83,,NH83,,,
23036,NH84,small_airport,Northwood Airport,43.20759963989258,-71.22119904,640,NA,US,US-NH,Northwood,no,NH84,,NH84,,,
23037,NH85,heliport,Sutton Heliport,44.033401,-71.1462,760,NA,US,US-NH,North Conway,no,NH85,,NH85,,,Apte Heliport
23038,NH86,small_airport,Intervale Airport,43.17509841918945,-71.78730011,425,NA,US,US-NH,Henniker,no,NH86,,NH86,,,
23039,NH87,heliport,Blue Light Heliport,43.73389816,-71.67910004,825,NA,US,US-NH,Plymouth,no,NH87,,NH87,,,
23040,NH88,small_airport,Country Club Air Park,43.067298889160156,-71.61119843,780,NA,US,US-NH,Goffstown,no,NH88,,NH88,,,
23041,NH91,heliport,Cheney Heliport,44.05030059814453,-71.17620087,600,NA,US,US-NH,Hales Location,no,NH91,,NH91,,,
23042,NH92,heliport,Littleton Hospital Heliport,44.31740189,-71.82649994,1155,NA,US,US-NH,Littleton,no,NH92,,NH92,,,
23043,NH93,heliport,Sean Heliport,42.762901306152344,-71.31529999,150,NA,US,US-NH,Pelham,no,NH93,,NH93,,,
23044,NH94,heliport,Spring Creek Heliport,42.80780029296875,-71.68579865,400,NA,US,US-NH,Milford,no,NH94,,NH94,,,
45529,NH96,small_airport,Wentworth Aerodrome Airport,43.872344,-71.90496,610,NA,US,US-NH,Wentworth,no,NH96,,NH96,,,
322297,NH98,heliport,Brady-Candia Heliport,43.044063,-71.316667,470,NA,US,US-NH,Candia,no,NH98,,NH98,,,
322641,NH99,heliport,New London Hospital Heliport,43.4200806,-71.9988583,1288,NA,US,US-NH,New London,no,NH99,,NH99,,,
24341,RI01,heliport,Kent County Memorial Hospital Heliport,41.70539855957031,-71.47699738,104,NA,US,US-RI,Warwick,no,RI01,,RI01,,,
45776,RI02,heliport,Grayrock Ridge Heliport,41.949311,-71.415397,314,NA,US,US-RI,Cumberland,no,RI02,,RI02,,,
24342,RI05,closed,Port Edgewood Marine Heliport,41.783168,-71.390741,10,NA,US,US-RI,Cranston,no,,,,,,RI05
24343,RI06,seaplane_base,Tiverton Seaplane Base,41.64820098876953,-71.15390015,205,NA,US,US-RI,Tiverton,no,RI06,,RI06,,,
24344,RI07,small_airport,Wing-Over Farm Airport,41.57899856567383,-71.14170074,113,NA,US,US-RI,Tiverton,no,RI07,,RI07,,,
24345,RI08,heliport,South County Hospital Heliport,41.430662,-71.498074,38,NA,US,US-RI,Wakefield,no,RI08,,RI08,,,
24346,RI09,closed,Portsmouth Ramada Heliport,41.632,-71.240303,50,NA,US,US-RI,Portsmouth,no,,,,,,RI09
24347,RI11,small_airport,Riconn Airport,41.6968,-71.783699,385,NA,US,US-RI,Greene,no,RI11,,RI11,,,
24348,RI12,closed,Quonset State Air Reserve National Guard Helipad,41.599499,-71.416702,18,NA,US,US-RI,North Kingstown,no,,,,,,RI12
24349,RI13,heliport,Foxridge Farm Heliport,41.494427,-71.556179,140,NA,US,US-RI,West Kingston,no,RI13,,RI13,,,
24350,RI14,closed,H Chambers Cadillac Heliport,41.792301,-71.417297,40,NA,US,US-RI,Providence,no,,,,,,RI14
24351,RI15,heliport,One Hospital Trust Heliport,41.825401306152344,-71.41010284,406,NA,US,US-RI,Providence,no,RI15,,RI15,,,
24352,RI16,balloonport,Keskinen Balloonport,41.71991,-71.631603,255,NA,US,US-RI,Coventry,no,RI16,,RI16,,,
24353,RI20,closed,Mystery Farm Airport,41.733727,-71.528293,310,NA,US,US-RI,Cranston,no,,,,,,RI20
24354,RI21,heliport,Goat Island Heliport,41.48820114135742,-71.32790375,8,NA,US,US-RI,Newport,no,RI21,,RI21,,,
24355,RI22,closed,Capital Center Heliport,41.828999,-71.413696,36,NA,US,US-RI,Providence,no,,,,,,RI22
24356,RI23,heliport,Westerly Hospital Heliport,41.36259841918945,-71.82369995,120,NA,US,US-RI,Westerly,no,RI23,,RI23,,,
24357,RI24,heliport,Duke Heliport,41.45589828491211,-71.30509949,34,NA,US,US-RI,Newport,no,RI24,,RI24,,,
24358,RI25,heliport,Rhode Island Hospital Heliport,41.810191,-71.409504,22,NA,US,US-RI,Providence,no,RI25,,RI25,,,
24359,RI26,heliport,Landmark Medical Center Heliport,42.00429916381836,-71.49420166,202,NA,US,US-RI,Woonsocket,no,RI26,,RI26,,,
24360,RI28,seaplane_base,Plouffe Landing Seaplane Base,41.87530136,-71.59030151,328,NA,US,US-RI,Glocester,no,RI28,,RI28,,,
24361,RI30,heliport,East Arnolda Farm Heliport,41.3787,-71.641218,30,NA,US,US-RI,Charlestown,no,RI30,,RI30,,,
24362,RI9,closed,Downtown Providence Helistop,41.821279,-71.405227,7,NA,US,US-RI,Providence,no,,,,,,RI9
44469,US-0054,closed,Cibor Airport,43.00999832,-70.80000305,,NA,US,US-NH,Rye,no,,,,,,
46016,US-0103,small_airport,Hapworths Private Landing Area Airport,44.64030075,-69.67030334,250,NA,US,US-ME,North Fairfield,no,,,,,,
312231,US-0250,closed,Newport Naval Air Facility,41.53,-71.345,0,NA,US,US-RI,Gould Island,no,,,,,,
315548,US-0273,closed,NAS Squantum,42.29772,-71.03371,,NA,US,US-MA,,no,,,,,https://en.wikipedia.org/wiki/Naval_Air_Station_Squantum,
321417,US-0333,small_airport,Griffin Field,44.8677222,-68.9771056,322,NA,US,US-ME,Levant,no,,,PG1,,,
321938,US-0370,seaplane_base,Cape Air Seaplanes on Boston Harbor Seaplane Base,42.352502,-71.025832,0,NA,US,US-MA,Boston,no,MA87,BNH,MA87,,,
322292,US-0441,heliport,Rigby Field Heliport,43.922739,-69.595694,56,NA,US,US-ME,Boothbay,no,ME44,,ME44,,,
322804,US-0523,heliport,Chase Heliport,41.7896,-72.799112,700,NA,US,US-CT,West Hartford,no,CT04,,CT04,,,
322810,US-0526,heliport,Elliot Hospital Heliport,42.984945,-71.437722,329,NA,US,US-NH,Manchester,no,NH48,,NH48,,,
323294,US-0559,closed,White Mountain Gateway Airport,43.820352,-71.133957,470,NA,US,US-NH,Freedom,no,,,,,,NH14
324429,US-0568,seaplane_base,Tailwind Boston Seaplane Base,42.351583,-71.024971,0,NA,US,US-MA,Boston,no,MA17,,MA17,,,
324564,US-0582,heliport,Valley Regional Hospital Heliport,43.384087,-72.341546,594,NA,US,US-NH,Claremont,no,NH97,,NH97,,,
324645,US-0600,small_airport,Limerick Airport,43.6989,-70.777597,362,NA,US,US-ME,Limerick,no,,,,,,Limerick Yarn Mills
324699,US-0615,closed,Lee Field,43.028826,-71.642754,300,NA,US,US-NH,Goffstown,no,,,,,,NH03
324822,US-0633,heliport,Tsam Heliport,43.132266,-71.439537,302,NA,US,US-NH,Pembroke,no,NH25,,NH25,,,
325016,US-0664,heliport,Gifford Memorial Hospital Heliport,43.917194,-72.665972,746,NA,US,US-VT,Randolph,no,,,VT95,,,
325567,US-0744,small_airport,Fort Kent Municipal Airport,47.204206,-68.579212,708,NA,US,US-ME,Fort Kent,no,,,FTKEN,,,
325573,US-0745,closed,Watson Airport,44.175925,-68.834624,101,NA,US,US-ME,Pulpit Harbor,no,,,,,,
325577,US-0746,closed,Fernald Field,44.647284,-68.901057,181,NA,US,US-ME,Winterport,no,,,,,,
325578,US-0747,small_airport,Lucky Landing Airport,44.904288,-68.808365,121,NA,US,US-ME,Glenburn,no,,,,,,
325582,US-0748,closed,Saint Croix Airport,45.130651,-67.304735,90,NA,US,US-ME,Baring,no,,,,,,
325587,US-0749,closed,Ashland Airport,46.59822,-68.393795,724,NA,US,US-ME,Ashland,no,,,,,,
328491,US-0917,heliport,Silo Heliport,41.793145,-73.049894,1050,NA,US,US-CT,Harwinton,no,07CT,,07CT,,,
328795,US-0933,heliport,Waldo County General Hospital Heliport,44.413275,-68.994053,72,NA,US,US-ME,Belfast,no,98ME,,98ME,,,
328796,US-0934,balloonport,Murphy's Landing Balloonport,41.666664,-73.1894444,1050,NA,US,US-CT,Bethlehem,no,CT30,,CT30,,,
328797,US-0935,heliport,Calais Regional Heliport,45.177134,-67.267936,153,NA,US,US-ME,Calais,no,46ME,,46ME,,,
328991,US-0946,heliport,Brady Sullivan-Elm Helistop,42.992317,-71.465319,250,NA,US,US-NH,Manchester,no,NH34,,NH34,,,
329019,US-0947,heliport,Millinocket Regional Hospital Heliport,45.653266,-68.716977,459,NA,US,US-ME,Millinocket,no,ME50,,ME50,,,
329078,US-0959,heliport,York Hospital Heliport,43.141583,-70.650669,72,NA,US,US-ME,York,no,ME94,,ME94,,,
329205,US-0960,heliport,Tufts Medical Center Heliport,42.349037,-71.063223,230,NA,US,US-MA,Boston,no,MA66,,MA66,,,
332763,US-1157,small_airport,Ragmuff Airport,46.019586,-69.533819,1046,NA,US,US-ME,Greenville,no,ME26,,ME26,,,
333574,US-1219,closed,Alstead Airfield / Whitcomb Landing Strip,43.12542,-72.403507,,NA,US,US-NH,Walpole,no,,,,,,
334231,US-1254,heliport,BLSG Brandon Heliport,43.802033,-73.113019,361,NA,US,US-VT,Brandon,no,VT33,,VT33,,,
334270,US-1265,heliport,BLSG Leicester Heliport,43.874739,-73.104369,441,NA,US,US-VT,Leicester,no,VT21,,VT21,,,
334311,US-1275,seaplane_base,Mirror Lake Seaplane Base,43.621666,-71.263889,509,NA,US,US-NH,Tuftonboro,no,NH64,,NH64,,,
334319,US-1278,heliport,Foote Farm Association RLA Heliport,43.989494,-73.239858,167,NA,US,US-VT,Cornwall,no,VT54,,VT54,,,
334321,US-1279,heliport,Quesnel Farm Property Heliport,43.988603,-73.252939,181,NA,US,US-VT,Cornwall,no,VT24,,VT24,,,
336087,US-1624,small_airport,Brookton Landing Field,45.529306,-67.760174,472,NA,US,US-ME,Brookton,no,,,,,,
336886,US-1909,small_airport,Estcourt Airport,47.44472,-69.154687,721,NA,US,US-ME,Estcourt,no,19ME,,19ME,,,Estcourt Station
336908,US-1924,closed,Milford Auxiliary Airlfield,44.973391,-68.45757,,NA,US,US-ME,Milford,no,,,,,,
336968,US-1935,closed,Albert Farms Airport,41.550101,-71.524227,177,NA,US,US-RI,Exeter,no,,,,,,
336969,US-1936,small_airport,Boystown Fly-in-Ranch Airport,41.636518,-71.348562,62,NA,US,US-RI,Warwick,no,,,,,,Prudence Island
336971,US-1937,closed,Coventry Airpark,41.688842,-71.585444,253,NA,US,US-RI,Coventry,no,,,,,,
336973,US-1938,closed,Willows Resort Airport,41.362323,-71.679508,7,NA,US,US-RI,Charlestown,no,,,,,,
336974,US-1939,closed,Naval Auxiliary Air Station Charlestown,41.368056,-71.667222,23,NA,US,US-RI,Charlestown,no,,,,,https://en.wikipedia.org/wiki/Naval_Auxiliary_Air_Station_Charlestown,Atlantic Airport
337509,US-2021,closed,Huff Airport,36.77282,-81.72121,,NA,US,US-VT,Monroe,no,,,,,,
339327,US-2675,heliport,Seguin Island Helipad,43.707915,-69.758061,,NA,US,US-ME,Phippsburg,no,,,,,,
339328,US-2676,heliport,Hope Island Private Helipad,43.70909,-70.11621,,NA,US,US-ME,Chebeague Island,no,,,,,,
339329,US-2677,heliport,St Andrews LZ Heliport,43.85063,-69.63802,10,NA,US,US-ME,Boothbay Harbor,no,61ME,,61ME,,,
341472,US-3232,closed,Bass Harbor Heliport,44.254444,-68.349167,59,NA,US,US-ME,Bass Harbor,no,,,,,,ME36
341510,US-3261,small_airport,Pine Lane Landing Strip,45.173824,-69.424761,,NA,US,US-ME,Abbot,no,,,,,,
39578,US-32M,closed,Norfolk Airport / Heenan-Menfi Memorial Airport,42.12854,-71.370277,137,NA,US,US-MA,Norfolk,no,,,,,,"32M, MA07, Franklin-Norfolk, Norfolk"
342491,US-3404,small_airport,Ragged Island Airstrip,43.83524,-68.88627,10,NA,US,US-ME,Matinicus,no,,,,,,
343167,US-3706,small_airport,Morse Field,46.00768,-68.44212,595,NA,US,US-ME,Patten,no,,,A001,,,
343775,US-3818,closed,Coast Guard Air Station Salem Seaplane Base,42.52549,-70.8695,,NA,US,US-MA,Salem,no,,,,,,
343776,US-3819,closed,Coast Guard Air Station Ten Pound Island Seaplane Base,42.60907,-70.66116,,NA,US,US-MA,Gloucester,no,,,,,https://en.wikipedia.org/wiki/Coast_Guard_Aviation_Station_Ten_Pound_Island,
343793,US-3836,closed,Walkers Point / George H W Bush Presidential Helipad,43.34343,-70.4599,15,NA,US,US-ME,Kennebunkport,no,,,,,,
344208,US-3959,closed,Sky Lodge Landing Strip,45.657803,-70.263319,1358,NA,US,US-ME,Moose River,no,,,,,,
344337,US-4052,heliport,Athol Hospital Heliport,42.58471,-72.20906,,NA,US,US-MA,Athol,no,,,,,,
344774,US-4170,heliport,New Milford Hospital Heliport,41.58052,-73.40733,270,NA,US,US-CT,New Milford,no,,,,,,
345954,US-4637,small_airport,Maheu Airport,44.14018,-70.34786,711,NA,US,US-ME,Minot,no,,,,,,
345955,US-4638,closed,Hemond Airport,44.13342,-70.34113,666,NA,US,US-ME,Minot,no,,,,,,72B
346049,US-4689,closed,Nomans Land Navy Airfield,41.25359,-70.82362,56,NA,US,US-MA,Chilmark,no,,,,,,
346284,US-4762,closed,Groveton Airfield,44.615,-71.485,,NA,US,US-NH,Groveton,no,,,,,,
346285,US-4763,closed,Daniel Webster Airport / Sanders Airfield,42.809601,-71.487994,203,NA,US,US-NH,Merrimack,no,,,,,,David Webster
346526,US-4826,heliport,Martha's Vineyard Hospital Heliport,41.459786,-70.578935,1,NA,US,US-MA,Oak Bluffs,no,MA62,,MA62,,,
346546,US-4839,closed,A-Copy Heliport,42.20121,-71.15532,52,NA,US,US-MA,Westwood,no,,,,,,0MA3
347841,US-5196,heliport,Captains Cove Seaport Heliport,41.15895,-73.21371,17,NA,US,US-CT,Bridgeport,no,,,,,,
347842,US-5197,heliport,Stamford Hospital Heliport,41.05428,-73.55211,,NA,US,US-CT,Stamford,no,,,,,,
347874,US-5209,heliport,Emerson Hospital Heliport,42.45119,-71.37487,121,NA,US,US-MA,Concord,no,,,,,,
347875,US-5210,closed,Millipore Heliport,42.48369,-71.27075,115,NA,US,US-MA,Bedford,no,,,,,,
350095,US-5890,closed,Robbins Field,44.98096,-68.92022,364,NA,US,US-ME,Hudson,no,,,,,,
353150,US-6599,small_airport,Equinox Landing Field,43.16275,-73.04516,752,NA,US,US-VT,Manchester Center,no,,,,,,
353309,US-6654,small_airport,Murphy Road Airstrip,46.84804,-67.89721,566,NA,US,US-ME,Fort Fairfield,no,,,,,,
353694,US-6744,small_airport,Butler Island Airport,44.82453,-73.2331,110,NA,US,US-VT,North Hero,no,,,,,,
356186,US-7084,heliport,Johnson Memorial Hospital Heliport,41.980569,-72.391469,880,NA,US,US-CT,Hartford,no,20CT,,20CT,,,
430409,US-7145,seaplane_base,Kevins Seaport Seaplane Base,42.274442,-72.599656,102,NA,US,US-MA,South Hadley,no,14MA,,14MA,,,
430593,US-7190,closed,Pownal Airport,43.8757,-70.20746,126,NA,US,US-ME,Pownal,no,,,,,,
505061,US-7339,small_airport,Mountain View Airport,44.14068,-70.62812,581,NA,US,US-ME,Harrison,no,,,,,,
508823,US-7643,closed,Dickey Airport,47.10805,-69.08708,631,NA,US,US-ME,Allagash,no,,,,,,
508828,US-7644,closed,Northern Road Airport,45.68861,-69.80786,1240,NA,US,US-ME,Rockwood,no,,,,,,
508829,US-7645,heliport,Vanceboro Heliport,45.56956,-67.42798,384,NA,US,US-ME,Vanceboro,no,,,,,,
508848,US-7658,closed,Port o' Maine Airport,43.61207,-70.30597,37,NA,US,US-ME,Portland,no,,,,,,
508919,US-7692,closed,Rogers Airport,46.61552,-67.92898,518,NA,US,US-ME,Easton,no,,,,,,
510426,US-7856,closed,Wgng Airport,41.905162,-71.398779,52,NA,US,US-RI,Providence,no,,,,,,Pawtucket
510427,US-7857,closed,WGNG Airport,41.905162,-71.398779,52,NA,US,US-RI,Providence,no,,,,,,Pawtucket
510428,US-7858,closed,Slocum Airport,41.528889,-71.508611,141,NA,US,US-RI,Slocum,no,,,,,,
510924,US-7941,small_airport,Smith Airport,44.75488,-73.27821,133,NA,US,US-VT,Grand Isle,no,,,,,,
511009,US-8004,closed,Enosburg Airfield,44.92299,-72.75308,405,NA,US,US-VT,Enosburg,no,,,,,,
511263,US-8040,closed,Angus Airways Airport,44.23021,-72.79207,689,NA,US,US-VT,Moretown,no,,,,,,
515939,US-8194,small_airport,Red Pine Grove Airport,46.59706,-69.78985,1051,NA,US,US-ME,Clayton Lake,no,82ME,,82ME,,,
516174,US-8253,closed,Saint Juste Road Airport,46.55212,-70.00911,1238,NA,US,US-ME,Seboomook Lake,no,,,,,,
521717,US-8429,seaplane_base,Pleasant View Seaplane Base,42.919349,-71.063311,117,NA,US,US-NH,Kingston,no,NH66,,NH66,,,
526358,US-8462,heliport,Bradway Pond Heliport,41.954361,-72.352284,714,NA,US,US-CT,Stafford Springs,no,CT31,,CT31,,,
25498,VT01,small_airport,Teal Farm Airport,44.282386,-72.937557,1440,NA,US,US-VT,Huntington,no,VT01,,VT01,,,
25499,VT02,closed,Red Fox Airport,43.147301,-72.885101,1434,NA,US,US-VT,Bondville,no,,,,,,VT02
25500,VT03,small_airport,Maule's Roost Airport,44.08869934082031,-72.98090363,1100,NA,US,US-VT,Lincoln,no,VT03,,VT03,,,
25501,VT04,heliport,Southwestern Vermont Heliport,42.87450027,-73.20760345,800,NA,US,US-VT,Bennington,no,VT04,,VT04,,,
25502,VT06,small_airport,Santa's Airport,43.004398345947266,-72.47370148,673,NA,US,US-VT,Putney,no,VT06,,VT06,,,
25503,VT07,closed,Berlin Armory Heliport,44.220901,-72.565697,950,NA,US,US-VT,Berlin,no,,,,,,VT07
25504,VT08,heliport,Bradford Armory Heliport,44.00149917602539,-72.12310028,465,NA,US,US-VT,Bradford,no,VT08,,VT08,,,
25505,VT09,small_airport,Spencer Airport,44.11360168457031,-73.29029846,310,NA,US,US-VT,Addison,no,VT09,,VT09,,,
25506,VT10,small_airport,Manning Personal Airstrip,43.98139953613281,-73.38569641,255,NA,US,US-VT,Bridport,no,VT10,,VT10,,,
25507,VT11,small_airport,Ass-Pirin Acres Airport,44.06869888305664,-73.37339783,130,NA,US,US-VT,Addison,no,VT11,,VT11,,,
25508,VT12,small_airport,E.A.Deeds Farm Airport,44.29119873046875,-73.28320313,127,NA,US,US-VT,Charlotte,no,VT12,,VT12,,,
25509,VT13,small_airport,Holloway Airport,43.30009841918945,-72.71759796,1520,NA,US,US-VT,Chester,no,VT13,,VT13,,,
25510,VT14,small_airport,Axinn Airport,44.045101165771484,-73.18959808,450,NA,US,US-VT,Weybridge,no,VT14,,VT14,,,
25511,VT15,small_airport,Savage Island Airport,44.70389938354492,-73.2460022,125,NA,US,US-VT,Grand Isle,no,VT15,,VT15,,,
25512,VT16,heliport,Velco Heliport,43.65980148,-72.99289703,715,NA,US,US-VT,Rutland,no,VT16,,VT16,,,
25513,VT17,small_airport,Smith Airport,43.36899948120117,-72.67430115,1502,NA,US,US-VT,Ludlow,no,VT17,,VT17,,,
25514,VT18,heliport,Morrisville Armory Heliport,44.55419922,-72.52729797,800,NA,US,US-VT,Morrisville,no,VT18,,VT18,,,
25515,VT19,heliport,Newport Armory Heliport,44.949501037597656,-72.19950104,700,NA,US,US-VT,Newport,no,VT19,,VT19,,,
25516,VT20,small_airport,Mach Personal Strip,43.36669922,-73.14820099,854,NA,US,US-VT,Pawlet,no,VT20,,VT20,,,
25517,VT21,closed,State Garage Site Heliport,44.826401,-73.088203,380,NA,US,US-VT,St. Albans,no,,,,,,VT21
25518,VT22,small_airport,Shelburne Farms Airport,44.40140151977539,-73.26709747,130,NA,US,US-VT,Shelburne,no,VT22,,VT22,,,
25519,VT23,small_airport,Bostwick Farm Airport,44.369147,-73.250656,220,NA,US,US-VT,Shelburne,no,VT23,,VT23,,,
25520,VT24,closed,Torrey Airport,43.931999,-73.370102,280,NA,US,US-VT,Shoreham,no,,,,,,VT24
25521,VT25,small_airport,Sky Acres Airport,44.41669845581055,-73.16619873,330,NA,US,US-VT,South Burlington,no,VT25,,VT25,,,
25522,VT26,small_airport,Allenholm Airport,44.624612,-73.306495,140,NA,US,US-VT,South Hero,no,VT26,,VT26,,,
25523,VT27,heliport,Villeneuve Heliport,44.515899658203125,-72.95120239,650,NA,US,US-VT,Underhill,no,VT27,,VT27,,,
25524,VT28,heliport,Vergennes Armory Heliport,44.17089844,-73.24680328,200,NA,US,US-VT,Vergennes,no,VT28,,VT28,,,
25525,VT29,closed,Mad River Fly-In Airport,44.226447,-72.795403,710,NA,US,US-VT,Waitsfield,no,,,,,,"VT29, Angus Airport"
25526,VT30,small_airport,Ketcham Landing Area Airport,44.16255,-72.834313,780,NA,US,US-VT,Waitsfield,no,VT30,,VT30,,,
25527,VT31,small_airport,Carriers Skypark Airport,44.11119842529297,-72.44400024,1600,NA,US,US-VT,Washington,no,VT31,,VT31,,,
25528,VT32,heliport,Bobby Heliport,42.98899841308594,-72.62809753,420,NA,US,US-VT,Brookline,no,VT32,,VT32,,,
25529,VT33,closed,Yankee Kingdom Airport,44.105598,-73.377899,200,NA,US,US-VT,West Addison,no,,,,,,VT33
25530,VT34,small_airport,Major W. Guth STOLport,43.059486,-72.492144,819,NA,US,US-VT,Westminster,no,VT34,,VT34,,,
25531,VT35,heliport,Williston Armory Heliport,44.438899993896484,-73.07730103,495,NA,US,US-VT,Williston,no,VT35,,VT35,,,
25532,VT36,heliport,MCHV Heliport,44.4734,-73.18875,345,NA,US,US-VT,Burlington,no,VT36,,VT36,,,
25533,VT37,heliport,Windsor Armory Heliport,43.47090148925781,-72.40370178,400,NA,US,US-VT,Windsor,no,VT37,,VT37,,,
25534,VT38,small_airport,Greenwoods Airfield,45.008584,-73.240966,179,NA,US,US-VT,Alburg,no,VT38,,VT38,,,
25535,VT39,small_airport,Taylor Airport,44.607601165771484,-72.48040009,1140,NA,US,US-VT,Wolcott,no,VT39,,VT39,,,
25536,VT40,heliport,Wenlock Crossing Heliport,44.777000427246094,-71.75150299,1157,NA,US,US-VT,Ferdinand,no,VT40,,VT40,,,
25537,VT41,closed,Moore's Field,42.924198,-72.5298,310,NA,US,US-VT,Putney,no,,,,,,VT41
25538,VT42,small_airport,Two Tails Airport,44.51259994506836,-72.60710144,754,NA,US,US-VT,Morrisville,no,VT42,,VT42,,,
25539,VT43,small_airport,Onyon Airport,43.01919937133789,-72.6529007,427,NA,US,US-VT,Townshend,no,VT43,,VT43,,,
25540,VT44,small_airport,Perras Field,44.52669906616211,-72.58149719,820,NA,US,US-VT,Morrisville,no,VT44,,VT44,,,
25541,VT45,small_airport,Davis Private Airport,44.51729965209961,-72.97930145,640,NA,US,US-VT,Jericho,no,VT45,,VT45,,,
25542,VT46,small_airport,Northern Lights Airport,44.872002,-73.286499,130,NA,US,US-VT,Alburg,no,VT46,,VT46,,,
25543,VT47,small_airport,Miller Farm Airfield,42.778599,-72.527802,285,NA,US,US-VT,Vernon,no,VT47,,VT47,,,Miller's Pleasure
25544,VT48,closed,Fairholt Airport,44.461399,-73.195999,350,NA,US,US-VT,Burlington,no,,,,,,VT48
25545,VT50,heliport,Enosburg Falls Armory Heliport,44.91389846801758,-72.80509949,410,NA,US,US-VT,Enosburg Falls,no,VT50,,VT50,,,
25546,VT51,heliport,Ibm Heliport,44.4817009,-73.09649658,385,NA,US,US-VT,Essex Junction,no,VT51,,VT51,,,
25547,VT52,small_airport,Shaw Meadow Airport,44.64339828491211,-73.18759918,230,NA,US,US-VT,Milton,no,VT52,,VT52,,,
25548,VT53,small_airport,Bailey Airport,44.117795,-73.377546,140,NA,US,US-VT,Panton,no,VT53,,VT53,,,Staton Airport
25549,VT54,closed,R G Newsome Heliport,43.651501,-72.422302,660,NA,US,US-VT,Quechee,no,,,,,,VT54
25550,VT55,small_airport,Brandon Airport,43.90119934082031,-72.582901,710,NA,US,US-VT,Randolph,no,VT55,,VT55,,,
25551,VT56,small_airport,West Burke Aerodrome,44.61309814453125,-71.98090363,1285,NA,US,US-VT,West Burke,no,VT56,,VT56,,,
25552,VT57,seaplane_base,Malletts Head Seaplane Base,44.56060028076172,-73.24040222,95,NA,US,US-VT,Colchester,no,VT57,,VT57,,,
25553,VT58,seaplane_base,Stave Island Seaplane Base,44.59590148925781,-73.34760284,95,NA,US,US-VT,South Hero,no,VT58,,VT58,,,
25554,VT59,small_airport,Ardell Flying Field,43.277801513671875,-72.91079712,1919,NA,US,US-VT,Manchester,no,VT59,,VT59,,,
25555,VT60,small_airport,Hulett Landing Strip,43.330101013183594,-73.24259949,720,NA,US,US-VT,West Pawlett,no,VT60,,VT60,,,
25556,VT61,heliport,Rutland Regional Medical Center Heliport,43.59809875488281,-72.95500183,650,NA,US,US-VT,Rutland,no,VT61,,VT61,,,
25557,VT62,small_airport,Catamount Airfield,44.39039993286133,-72.3506012,1350,NA,US,US-VT,Cabot,no,VT62,,VT62,,,
25558,VT63,small_airport,Douglas Field,44.99530029296875,-72.3789978,650,NA,US,US-VT,North Troy,no,VT63,,VT63,,,
25559,VT64,small_airport,Mountain View Farm Airport,44.51530075073242,-72.6411972,1200,NA,US,US-VT,Morristown,no,VT64,,VT64,,,
324415,VT67,heliport,Central Vermont Medical Center Heliport,44.219369,-72.560408,960,NA,US,US-VT,Barre,no,VT65,,VT65,,,VT67
25560,VT70,heliport,North Country Hospital Heliport,44.95640182495117,-72.19950104,720,NA,US,US-VT,Newport,no,VT70,,VT70,,,
531723,VT72,small_airport,Villeneuve Field,44.515682,-72.95452,668,NA,US,US-VT,Jericho,no,VT72,,VT72,,,
45871,VT73,small_airport,Melrose Springs Airfield,43.944861,-73.316833,300,NA,US,US-VT,Bridport,no,VT73,,VT73,,,
25561,VT8,small_airport,Shelburne Airport,44.359451,-73.226194,325,NA,US,US-VT,Shelburne,no,KVT8,,VT8,,,
334360,VT80,heliport,Monument Farms Dairy Bittersweet Falls Road Heliport,44.036531,-73.213869,394,NA,US,US-VT,Weybridge,no,VT80,,VT80,,,
322688,VT88,heliport,VTPAD Heliport,44.058938,-73.019483,1908,NA,US,US-VT,South Lincoln,no,VT88,,VT88,,,
45868,VT96,heliport,Mansfield Heliflight Inc Heliport,44.600117,-73.16505,175,NA,US,US-VT,Milton,no,VT96,,VT96,,,
28130,X-US001,closed,Pike Airfield,43.459999084472656,-71.55999756,480,NA,US,US-NH,Tilton,no,,,,,,
